ICAO,Name,City,Country,IATA,Latitude,Longitude
BGBW,Narsarsuaq Airport,Narssarssuaq,Greenland,UAK,61.1604995728,-45.4259986877
BGSF,Kangerlussuaq Airport,Sondrestrom,Greenland,SFJ,67.0122218992,-50.7116031647
BGTL,Thule Air Base,Thule,Greenland,THU,76.5311965942,-68.7032012939
BIAR,Akureyri Airport,Akureyri,Iceland,AEY,65.66000366210938,-18.07270050048828
BIEG,Egilsstaðir Airport,Egilsstadir,Iceland,EGS,65.2833023071289,-14.401399612426758
BIKF,Keflavik International Airport,Keflavik,Iceland,KEF,63.985000610352,-22.605600357056
BIRK,Reykjavik Airport,Reykjavik,Iceland,RKV,64.1299972534,-21.9405994415
CYBC,Baie Comeau Airport,Baie Comeau,Canada,YBC,49.13249969482422,-68.20439910888672
CYBG,CFB Bagotville,Bagotville,Canada,YBG,48.33060073852539,-70.99639892578125
CYCL,Charlo Airport,Charlo,Canada,YCL,47.990799,-66.330299
CYEG,Edmonton International Airport,Edmonton,Canada,YEG,53.3097000122,-113.580001831
CYFB,Iqaluit Airport,Iqaluit,Canada,YFB,63.756402,-68.555801
CYFC,Fredericton Airport,Fredericton,Canada,YFC,45.868900299072266,-66.53720092773438
CYHM,John C. Munro Hamilton International Airport,Hamilton,Canada,YHM,43.1735992432,-79.93499755859999
CYHZ,Halifax / Stanfield International Airport,Halifax,Canada,YHZ,44.8807983398,-63.5085983276
CYJT,Stephenville Airport,Stephenville,Canada,YJT,48.5442008972168,-58.54999923706055
CYMX,Montreal International (Mirabel) Airport,Montreal,Canada,YMX,45.679501,-74.038696
CYOW,Ottawa Macdonald-Cartier International Airport,Ottawa,Canada,YOW,45.3224983215332,-75.66919708251953
CYQB,Quebec Jean Lesage International Airport,Quebec,Canada,YQB,46.7911,-71.393303
CYQM,Greater Moncton International Airport,Moncton,Canada,YQM,46.11220169067383,-64.67859649658203
CYQX,Gander International Airport,Gander,Canada,YQX,48.9369010925293,-54.56809997558594
CYSJ,Saint John Airport,St. John,Canada,YSJ,45.31610107421875,-65.89029693603516
CYTR,CFB Trenton,Trenton,Canada,YTR,44.118900299072266,-77.5280990600586
CYUL,Montreal / Pierre Elliott Trudeau International Airport,Montreal,Canada,YUL,45.4706001282,-73.7407989502
CYVR,Vancouver International Airport,Vancouver,Canada,YVR,49.193901062,-123.183998108
CYWG,Winnipeg / James Armstrong Richardson International Airport,Winnipeg,Canada,YWG,49.9099998474,-97.2398986816
CYXY,Whitehorse / Erik Nielsen International Airport,Whitehorse,Canada,YXY,60.7095985413,-135.067001343
CYYC,Calgary International Airport,Calgary,Canada,YYC,51.113899231,-114.019996643
CYYG,Charlottetown Airport,Charlottetown,Canada,YYG,46.290000915527344,-63.12110137939453
CYYR,Goose Bay Airport,Goose Bay,Canada,YYR,53.3191986084,-60.4258003235
CYYT,St. John's International Airport,St. John's,Canada,YYT,47.618598938,-52.7518997192
CYYZ,Lester B. Pearson International Airport,Toronto,Canada,YYZ,43.6772003174,-79.63059997559999
CYZF,Yellowknife Airport,Yellowknife,Canada,YZF,62.462799072265625,-114.44000244140624
DAAE,Soummam Airport,Bejaja,Algeria,BJA,36.7120018005,5.0699200630200005
DAAG,Houari Boumediene Airport,Algier,Algeria,ALG,36.69100189208984,3.215409994125366
DAAJ,Djanet Inedbirene Airport,Djanet,Algeria,DJG,24.292801,9.45244
DAAK,Boufarik Airport,Boufarik,Algeria,,36.545799,2.87611
DAAQ,Ain Oussera Airport,Ain Oussera,Algeria,,35.52539825439453,2.8787100315093994
DAAT,Aguenar – Hadj Bey Akhamok Airport,Tamanrasset,Algeria,TMR,22.8115005493,5.45107984543
DAAV,Jijel Ferhat Abbas Airport,Jijel,Algeria,GJL,36.7951011658,5.87361001968
DABB,Rabah Bitat Airport,Annaba,Algeria,AAE,36.822201,7.809174
DABC,Mohamed Boudiaf International Airport,Constantine,Algeria,CZL,36.2760009765625,6.620389938354492
DAOF,Tindouf Airport,Tindouf,Algeria,TIN,27.7003993988,-8.167099952700001
DAOI,Ech Cheliff Airport,Ech-cheliff,Algeria,CFK,36.2126998901,1.33176994324
DAON,Zenata – Messali El Hadj Airport,Tlemcen,Algeria,TLM,35.0167007446,-1.45000004768
DAOO,Es Senia Airport,Oran,Algeria,ORN,35.6239013672,-0.6211829781529999
DAUA,Touat Cheikh Sidi Mohamed Belkebir Airport,Adrar,Algeria,AZR,27.83760070800781,-0.1864140033721923
DAUB,Biskra Airport,Biskra,Algeria,BSK,34.7933006287,5.73823022842
DAUG,Noumérat - Moufdi Zakaria Airport,Ghardaia,Algeria,GHA,32.38410186767578,3.794110059738159
DAUH,Oued Irara Airport,Hassi Messaoud,Algeria,HME,31.6730003357,6.140439987180001
DAUU,Ain el Beida Airport,Ouargla,Algeria,OGX,31.917200088500977,5.412779808044434
DBBB,Cadjehoun Airport,Cotonou,Benin,COO,6.357230186462402,2.384350061416626
DFFD,Ouagadougou Airport,Ouagadougou,Burkina Faso,OUA,12.3532,-1.51242
DGAA,Kotoka International Airport,Accra,Ghana,ACC,5.605189800262451,-0.1667860001325607
DIAP,Port Bouet Airport,Abidjan,Cote d'Ivoire,ABJ,5.261390209197998,-3.9262900352478023
DNAA,Nnamdi Azikiwe International Airport,Abuja,Nigeria,ABV,9.006790161132812,7.263169765472412
DNEN,Akanu Ibiam International Airport,Enugu,Nigeria,ENU,6.474269866943359,7.561960220336914
DNKA,Kaduna Airport,Kaduna,Nigeria,KAD,10.696000099182127,7.320109844207764
DNKN,Mallam Aminu International Airport,Kano,Nigeria,KAN,12.0476,8.52462
DNMK,Makurdi Airport,Makurdi,Nigeria,MDI,7.70388,8.61394
DNMM,Murtala Muhammed International Airport,Lagos,Nigeria,LOS,6.5773701667785645,3.321160078048706
DNPO,Port Harcourt International Airport,Port Hartcourt,Nigeria,PHC,5.0154900550842285,6.94959020614624
DNYO,Yola Airport,Yola,Nigeria,YOL,9.257550239562988,12.430399894714355
DRRN,Diori Hamani International Airport,Niamey,Niger,NIM,13.4815,2.18361
DRZA,Mano Dayak International Airport,Agadez,Niger,AJY,16.965999603271484,8.000109672546387
DTMB,Monastir Habib Bourguiba International Airport,Monastir,Tunisia,MIR,35.75809860229492,10.75469970703125
DTTA,Tunis Carthage International Airport,Tunis,Tunisia,TUN,36.85100173950195,10.22719955444336
DTTG,Gabès Matmata International Airport,Gabes,Tunisia,GAE,33.87689971923828,10.103300094604492
DTTJ,Djerba Zarzis International Airport,Djerba,Tunisia,DJE,33.875,10.775500297546388
DTTX,Sfax Thyna International Airport,Sfax,Tunisia,SFA,34.71799850463867,10.690999984741213
DTTZ,Tozeur Nefta International Airport,Tozeur,Tunisia,TOE,33.939701080322266,8.110560417175293
DXXX,Lomé-Tokoin Airport,Lome,Togo,LFW,6.165609836578369,1.2545100450515747
EBAW,Antwerp International Airport (Deurne),Antwerp,Belgium,ANR,51.1893997192,4.46027994156
EBBE,Beauvechain Air Base,Beauvechain,Belgium,,50.75859832763672,4.768330097198486
EBBR,Brussels Airport,Brussels,Belgium,BRU,50.9014015198,4.48443984985
EBCI,Brussels South Charleroi Airport,Charleroi,Belgium,CRL,50.459202,4.45382
EBKT,Wevelgem Airport,Kortrijk-vevelgem,Belgium,KJK,50.817199707,3.20472002029
EBLG,Liège Airport,Liege,Belgium,LGG,50.63740158081055,5.443220138549805
EBOS,Ostend-Bruges International Airport,Ostend,Belgium,OST,51.1988983154,2.8622200489
EDAB,Flugplatz Bautzen,Bautzen,Germany,,51.193611,14.519722
EDAC,Altenburg-Nobitz Airport,Altenburg,Germany,AOC,50.981945,12.506389
EDAE,Eisenhüttenstadt Airfield,Eisenhuettenstadt,Germany,,52.195856,14.58753
EDAQ,Halle-Oppin Airport,Halle,Germany,,51.552223,12.053889
EDAY,Strausberg Airport,Strausberg,Germany,,52.5805549621582,13.916666984558104
EDAZ,Schönhagen Airport,Schoenhagen,Germany,QXH,52.203609,13.156389
EDBH,Barth Airport,Barth,Germany,BBH,54.338253,12.710515
EDBJ,Jena-Schöngleina Airfield,Jena,Germany,,50.915279,11.714444
EDBM,"Magdeburg ""City"" Airport",Magdeburg,Germany,ZMG,52.073612,11.626389
EDBR,Rothenburg/Görlitz Airport,Rothenburg/ol,Germany,,51.36333465576172,14.949999809265137
EDCM,Kamenz Airport,Kamenz,Germany,,51.29694366455078,14.1274995803833
EDDB,Berlin-Schönefeld Airport,Berlin,Germany,SXF,52.380001,13.5225
EDDC,Dresden Airport,Dresden,Germany,DRS,51.1328010559082,13.767200469970703
EDDE,Erfurt Airport,Erfurt,Germany,ERF,50.97980117797852,10.958100318908691
EDDF,Frankfurt am Main Airport,Frankfurt,Germany,FRA,50.033333,8.570556
EDDG,Münster Osnabrück Airport,Munster,Germany,FMO,52.134601593,7.68483018875
EDDH,Hamburg Airport,Hamburg,Germany,HAM,53.630401611328,9.9882297515869
EDDK,Cologne Bonn Airport,Cologne,Germany,CGN,50.8658981323,7.1427397728
EDDL,Düsseldorf Airport,Duesseldorf,Germany,DUS,51.289501,6.76678
EDDM,Munich Airport,Munich,Germany,MUC,48.353802,11.7861
EDDN,Nuremberg Airport,Nuernberg,Germany,NUE,49.498699,11.078056
EDDP,Leipzig/Halle Airport,Leipzig,Germany,LEJ,51.423889,12.236389
EDDR,Saarbrücken Airport,Saarbruecken,Germany,SCN,49.2145996094,7.10950994492
EDDS,Stuttgart Airport,Stuttgart,Germany,STR,48.6898994446,9.22196006775
EDDT,Berlin-Tegel Airport,Berlin,Germany,TXL,52.5597,13.2877
EDDV,Hannover Airport,Hannover,Germany,HAJ,52.461101532,9.68507957458
EDDW,Bremen Airport,Bremen,Germany,BRE,53.0475006104,8.78666973114
EDFE,Frankfurt-Egelsbach Airport,Egelsbach,Germany,QEF,49.959999,8.645833
EDFH,Frankfurt-Hahn Airport,Hahn,Germany,HHN,49.9487,7.26389
EDFM,Mannheim-City Airport,Mannheim,Germany,MHG,49.473057,8.514167
EDFV,Worms Airport,Worms,Germany,,49.606945,8.368333
EDFZ,Mainz-Finthen Airport,Mainz,Germany,,49.967499,8.147222
EDGE,Eisenach-Kindel Airport,Eisenach,Germany,EIB,50.991604,10.47973
EDGS,Siegerland Airport,Siegerland,Germany,SGE,50.70769882202149,8.082969665527344
EDHI,Hamburg-Finkenwerder Airport,Hamburg,Germany,XFW,53.5352783203125,9.835556030273438
EDHK,Kiel-Holtenau Airport,Kiel,Germany,KEL,54.37944412231445,10.145277976989746
EDHL,Lübeck Blankensee Airport,Luebeck,Germany,LBC,53.8054008484,10.7192001343
EDKV,Flugplatz Dahlemer Binz,Dahlemer Binz,Germany,,50.405555725,6.5288891792
EDKZ,Meinerzhagen Airport,Meinerzhagen,Germany,,51.09999847412109,7.599999904632568
EDLA,Arnsberg-Menden Airport,Arnsberg,Germany,,51.48389053344727,7.8983330726623535
EDLE,Essen Mulheim Airport,Essen,Germany,ESS,51.40230178833008,6.9373297691345215
EDLI,Bielefeld Airport,Bielefeld,Germany,BFE,51.964722,8.544444
EDLN,Mönchengladbach Airport,Moenchengladbach,Germany,MGL,51.230278,6.504444
EDLP,Paderborn Lippstadt Airport,Paderborn,Germany,PAD,51.6141014099,8.616319656369999
EDLS,Stadtlohn-Vreden Airport,Stadtlohn,Germany,,51.99583435058594,6.840556144714356
EDLW,Dortmund Airport,Dortmund,Germany,DTM,51.51829910279999,7.61223983765
EDMA,Augsburg Airport,Augsburg,Germany,AGB,48.425278,10.931667
EDME,Eggenfelden Airport,Eggenfelden,Germany,,48.39611053466797,12.723610877990724
EDMO,Oberpfaffenhofen Airport,Oberpfaffenhofen,Germany,OBF,48.081402,11.2831
EDMS,Straubing Airport,Straubing,Germany,RBM,48.90083312988281,12.516667366027832
EDMV,Vilshofen Airport,Vilshofen,Germany,,48.6349983215332,13.195555686950684
EDNY,Friedrichshafen Airport,Friedrichshafen,Germany,FDH,47.6712989807,9.51148986816
EDOP,Schwerin Parchim Airport,Parchim,Germany,SZW,53.426998,11.7834
EDPA,Aalen-Heidenheim/Elchingen Airport,Aalen-heidenheim,Germany,,48.77777862548828,10.264721870422363
EDQD,Bayreuth Airport,Bayreuth,Germany,BYU,49.985001,11.64
EDQM,Hof-Plauen Airport,Hof,Germany,HOQ,50.288612365722656,11.856389045715332
EDQT,Haßfurt-Schweinfurt Airport,Hassfurt,Germany,,50.0180549621582,10.529443740844728
EDRK,Koblenz-Winningen Airfield,Koblenz,Germany,,50.325558,7.528611
EDRT,Trier-Föhren Airport,Trier,Germany,,49.863888,6.7875
EDRY,Speyer Airfield,Speyer,Germany,,49.304722,8.451389
EDRZ,Zweibrücken Airport,Zweibruecken,Germany,ZQW,49.2094,7.40056
EDTD,Donaueschingen-Villingen Airport,Donaueschingen,Germany,ZQL,47.97333145139999,8.52222156525
EDTF,Freiburg i. Br. Airport,Freiburg,Germany,,48.022777557400005,7.83249998093
EDTM,Mengen-Hohentengen Airport,Mengen,Germany,,48.05389022827149,9.372777938842772
EDTY,Adolf Würth Airport,Schwaebisch Hall,Germany,,49.1183319092,9.783888816829998
EDUS,Finsterwalde/Schacksdorf Airport,Soest,Germany,,51.607498,13.743611
EDVE,Braunschweig-Wolfsburg Airport,Braunschweig,Germany,BWE,52.319199,10.5561
EDVK,Kassel-Calden Airport,Kassel,Germany,KSF,51.417273,9.384967
EDWE,Emden Airport,Emden,Germany,EME,53.391109,7.2275
EDWF,Leer-Papenburg Airport,Leer,Germany,,53.27194213867188,7.441667079925537
EDWI,Wilhelmshaven-Mariensiel Airport,Wilhelmshaven,Germany,WVN,53.502220153808594,8.05222225189209
EDWY,Norderney Airport,Norderney,Germany,NRD,53.70694351196289,7.230000019073486
EDXF,Flensburg-Schäferhaus Airport,Flensburg,Germany,FLF,54.77333450317383,9.378889083862305
EDXW,Westerland Sylt Airport,Westerland,Germany,GWT,54.9132003784,8.34047031403
EEEI,Ämari Air Base,Armari Air Force Base,Estonia,,59.26029968261719,24.208499908447266
EEKA,Kärdla Airport,Kardla,Estonia,KDL,58.99079895019531,22.830699920654297
EEKE,Kuressaare Airport,Kuressaare,Estonia,URE,58.22990036010742,22.50950050354004
EETN,Lennart Meri Tallinn Airport,Tallinn-ulemiste International,Estonia,TLL,59.41329956049999,24.8327999115
EETU,Tartu Airport,Tartu,Estonia,TAY,58.3074989319,26.690399169900004
EFET,Enontekio Airport,Enontekio,Finland,ENF,68.362602233887,23.424299240112
EFHA,Halli Airport,Halli,Finland,KEV,61.856039,24.786686
EFHK,Helsinki Vantaa Airport,Helsinki,Finland,HEL,60.317199707031,24.963300704956
EFIV,Ivalo Airport,Ivalo,Finland,IVL,68.607299804688,27.405300140381
EFJO,Joensuu Airport,Joensuu,Finland,JOE,62.662899017334,29.607500076294
EFJY,Jyvaskyla Airport,Jyvaskyla,Finland,JYV,62.399501800537,25.678300857544
EFKE,Kemi-Tornio Airport,Kemi,Finland,KEM,65.778701782227,24.582099914551
EFKI,Kajaani Airport,Kajaani,Finland,KAJ,64.285499572754,27.692399978638
EFKK,Kokkola-Pietarsaari Airport,Kruunupyy,Finland,KOK,63.721199035645,23.143100738525
EFKS,Kuusamo Airport,Kuusamo,Finland,KAO,65.987602233887,29.239400863647
EFKT,Kittilä Airport,Kittila,Finland,KTT,67.700996398926,24.846799850464
EFKU,Kuopio Airport,Kuopio,Finland,KUO,63.007099151611,27.797800064087
EFLP,Lappeenranta Airport,Lappeenranta,Finland,LPP,61.044601,28.144743
EFMA,Mariehamn Airport,Mariehamn,Finland,MHQ,60.122200012207,19.898199081421
EFMI,Mikkeli Airport,Mikkeli,Finland,MIK,61.6866,27.201799
EFOU,Oulu Airport,Oulu,Finland,OUL,64.930099487305,25.354600906372
EFPO,Pori Airport,Pori,Finland,POR,61.461700439453,21.799999237061
EFRO,Rovaniemi Airport,Rovaniemi,Finland,RVN,66.564796447754,25.830400466919
EFSA,Savonlinna Airport,Savonlinna,Finland,SVL,61.943099975586,28.945100784302
EFTP,Tampere-Pirkkala Airport,Tampere,Finland,TMP,61.414100646973,23.604400634766
EFTU,Turku Airport,Turku,Finland,TKU,60.514099121094,22.262800216675
EFUT,Utti Air Base,Utti,Finland,UTI,60.89640045166,26.938400268555
EFVA,Vaasa Airport,Vaasa,Finland,VAA,63.050701141357,21.762199401855
EGAA,Belfast International Airport,Belfast,United Kingdom,BFS,54.6575012207,-6.21582984924
EGAB,St Angelo Airport,Enniskillen,United Kingdom,ENK,54.39889907836914,-7.651669979095459
EGAC,George Best Belfast City Airport,Belfast,United Kingdom,BHD,54.61809921264648,-5.872499942779541
EGAE,City of Derry Airport,Londonderry,United Kingdom,LDY,55.04280090332031,-7.161109924316406
EGBB,Birmingham International Airport,Birmingham,United Kingdom,BHX,52.4538993835,-1.74802994728
EGBE,Coventry Airport,Coventry,United Kingdom,CVT,52.3697013855,-1.47971999645
EGBJ,Gloucestershire Airport,Golouchestershire,United Kingdom,GLO,51.89419937133789,-2.167220115661621
EGBP,Cotswold Airport,Pailton,United Kingdom,GBA,51.668095,-2.05694
EGCC,Manchester Airport,Manchester,United Kingdom,MAN,53.35369873046875,-2.2749500274658203
EGHQ,Newquay Cornwall Airport,Newquai,United Kingdom,NQY,50.44060134887695,-4.995409965515137
EGDM,MoD Boscombe Down Airport,Boscombe Down,United Kingdom,,51.15219879150391,-1.7474100589752195
EGDR,RNAS Culdrose,Culdrose,United Kingdom,,50.08610153198242,-5.255710124969482
EGDX,MoD St. Athan,St. Athan,United Kingdom,,51.4048,-3.43575
EGDY,RNAS Yeovilton,Yeovilton,United Kingdom,YEO,51.0093994140625,-2.638819932937622
EGFE,Haverfordwest Airport,Haverfordwest,United Kingdom,HAW,51.833099365234375,-4.9611101150512695
EGFF,Cardiff International Airport,Cardiff,United Kingdom,CWL,51.39670181274414,-3.343329906463623
EGGD,Bristol Airport,Bristol,United Kingdom,BRS,51.382702,-2.71909
EGGP,Liverpool John Lennon Airport,Liverpool,United Kingdom,LPL,53.33359909057617,-2.849720001220703
EGGW,London Luton Airport,London,United Kingdom,LTN,51.874698638916016,-0.3683330118656158
EGHH,Bournemouth Airport,Bournemouth,United Kingdom,BOH,50.77999877929688,-1.8424999713897705
EGHI,Southampton Airport,Southampton,United Kingdom,SOU,50.95029830932617,-1.3567999601364136
EGHL,Lasham Airport,Lasham,United Kingdom,QLA,51.187198638916016,-1.0334999561309814
EGJA,Alderney Airport,Alderney,Guernsey,ACI,49.706104,-2.21472
EGJB,Guernsey Airport,Guernsey,Guernsey,GCI,49.435001373291016,-2.601969957351685
EGJJ,Jersey Airport,Jersey,Jersey,JER,49.20790100097656,-2.195509910583496
EGKA,Shoreham Airport,Shoreham By Sea,United Kingdom,ESH,50.835602,-0.297222
EGKB,London Biggin Hill Airport,Biggin Hill,United Kingdom,BQH,51.33079910279999,0.0324999988079
EGKK,London Gatwick Airport,London,United Kingdom,LGW,51.148102,-0.190278
EGLC,London City Airport,London,United Kingdom,LCY,51.505299,0.055278
EGLF,Farnborough Airport,Farnborough,United Kingdom,FAB,51.2757987976,-0.776332974434
EGLJ,Chalgrove Airport,Chalsgrove,United Kingdom,,51.67610168457031,-1.0808299779891968
EGLK,Blackbushe Airport,Blackbushe,United Kingdom,BBS,51.32389831542969,-0.8475000262260437
EGLL,London Heathrow Airport,London,United Kingdom,LHR,51.4706,-0.461941
EGMC,Southend Airport,Southend,United Kingdom,SEN,51.5713996887207,0.6955559849739075
EGMD,Lydd Airport,Lydd,United Kingdom,LYX,50.95610046386719,0.939167022705078
EGNC,Carlisle Airport,Carlisle,United Kingdom,CAX,54.9375,-2.8091700077056885
EGNE,Retford Gamston Airport,Repton,United Kingdom,,53.28060150146485,-0.9513890147209167
EGNH,Blackpool International Airport,Blackpool,United Kingdom,BLK,53.77170181274414,-3.0286099910736084
EGNJ,Humberside Airport,Humberside,United Kingdom,HUY,53.57440185546875,-0.350832998752594
EGNM,Leeds Bradford Airport,Leeds,United Kingdom,LBA,53.86589813232422,-1.6605700254440308
EGNO,Warton Airport,Warton,United Kingdom,WRT,53.745098,-2.88306
EGNR,Hawarden Airport,Hawarden,United Kingdom,CEG,53.1781005859375,-2.977780103683472
EGNS,Isle of Man Airport,Isle Of Man,Isle of Man,IOM,54.08330154418945,-4.623889923095703
EGNT,Newcastle Airport,Newcastle,United Kingdom,NCL,55.03749847412109,-1.6916699409484863
EGNV,Durham Tees Valley Airport,Teesside,United Kingdom,MME,54.50920104980469,-1.4294099807739258
EGNX,East Midlands Airport,East Midlands,United Kingdom,EMA,52.8311004639,-1.32806003094
EGPA,Kirkwall Airport,Kirkwall,United Kingdom,KOI,58.957801818847656,-2.9049999713897705
EGPB,Sumburgh Airport,Sumburgh,United Kingdom,LSI,59.87889862060547,-1.295560002326965
EGPC,Wick Airport,Wick,United Kingdom,WIC,58.45890045166016,-3.09306001663208
EGPD,Aberdeen Dyce Airport,Aberdeen,United Kingdom,ABZ,57.20190048217773,-2.197779893875122
EGPE,Inverness Airport,Inverness,United Kingdom,INV,57.54249954223633,-4.047500133514404
EGPF,Glasgow International Airport,Glasgow,United Kingdom,GLA,55.8718986511,-4.43306016922
EGPH,Edinburgh Airport,Edinburgh,United Kingdom,EDI,55.95000076293945,-3.372499942779541
EGPI,Islay Airport,Islay,United Kingdom,ILY,55.68190002441406,-6.256669998168945
EGPK,Glasgow Prestwick Airport,Prestwick,United Kingdom,PIK,55.5093994140625,-4.586669921875
EGPL,Benbecula Airport,Benbecula,United Kingdom,BEB,57.48109817504883,-7.362780094146728
EGPM,Scatsta Airport,Scatsta,United Kingdom,SCS,60.43280029296875,-1.2961100339889526
EGPN,Dundee Airport,Dundee,United Kingdom,DND,56.45249938964844,-3.025830030441284
EGPO,Stornoway Airport,Stornoway,United Kingdom,SYY,58.215599060058594,-6.331110000610352
EGPU,Tiree Airport,Tiree,United Kingdom,TRE,56.49919891357422,-6.869170188903809
EGQL,RAF Leuchars,Leuchars,United Kingdom,ADX,56.37289810180664,-2.8684399127960205
EGQS,RAF Lossiemouth,Lossiemouth,United Kingdom,LMO,57.7052001953125,-3.339169979095459
EGSC,Cambridge Airport,Cambridge,United Kingdom,CBG,52.205002,0.175
EGSH,Norwich International Airport,Norwich,United Kingdom,NWI,52.6758003235,1.28278005123
EGSS,London Stansted Airport,London,United Kingdom,STN,51.8849983215,0.234999999404
EGTC,Cranfield Airport,Cranfield,United Kingdom,,52.0722007751,-0.616666972637
EGTE,Exeter International Airport,Exeter,United Kingdom,EXT,50.73440170288086,-3.4138898849487305
EGTK,Oxford (Kidlington) Airport,Oxford,United Kingdom,OXF,51.8368988037,-1.32000005245
EGUL,RAF Lakenheath,Lakenheath,United Kingdom,LKZ,52.4093017578,0.56099998951
EGUN,RAF Mildenhall,Mildenhall,United Kingdom,MHZ,52.36190032958984,0.486405998468399
EGVA,RAF Fairford,Fairford,United Kingdom,FFD,51.6822013855,-1.7900300025900002
EGVN,RAF Brize Norton,Brize Norton,United Kingdom,BZZ,51.75,-1.58362
EGVO,RAF Odiham,Odiham,United Kingdom,ODH,51.2341003418,-0.94282501936
EGWU,RAF Northolt,Northolt,United Kingdom,NHT,51.5530014038,-0.418166995049
EGXC,RAF Coningsby,Coningsby,United Kingdom,QCY,53.0929985046,-0.166014000773
EGXP,RAF Scampton,Scampton,United Kingdom,SQZ,53.307800293,-0.550832986832
EGXW,RAF Waddington,Waddington,United Kingdom,WTN,53.1661987305,-0.523810982704
EGYM,RAF Marham,Marham,United Kingdom,KNF,52.648395,0.550692
EHAM,Amsterdam Airport Schiphol,Amsterdam,Netherlands,AMS,52.308601,4.76389
EHBD,Budel Airfield Kempen,Weert,Netherlands,,51.255299,5.60139
EHBK,Maastricht Aachen Airport,Maastricht,Netherlands,MST,50.911701,5.77014
EHEH,Eindhoven Airport,Eindhoven,Netherlands,EIN,51.4500999451,5.37452983856
EHGG,Eelde Airport,Groningen,Netherlands,GRQ,53.1197013855,6.57944011688
EHKD,De Kooy Airport,De Kooy,Netherlands,DHR,52.92340087890625,4.780620098114014
EHLE,Lelystad Airport,Lelystad,Netherlands,LEY,52.4603,5.52722
EHLW,Leeuwarden Air Base,Leeuwarden,Netherlands,LWR,53.22859954833984,5.760560035705566
EHRD,Rotterdam The Hague Airport,Rotterdam,Netherlands,RTM,51.956902,4.43722
EHTW,Twente Airport,Enschede,Netherlands,ENS,52.275833,6.889167
EHWO,Woensdrecht Air Base,Woensdrecht,Netherlands,WOE,51.4491,4.34203
EICK,Cork Airport,Cork,Ireland,ORK,51.84130096435547,-8.491109848022461
EIDW,Dublin Airport,Dublin,Ireland,DUB,53.421299,-6.27007
EIKN,Ireland West Knock Airport,Connaught,Ireland,NOC,53.910301208496094,-8.818490028381348
EIKY,Kerry Airport,Kerry,Ireland,KIR,52.18090057373047,-9.52377986907959
EINN,Shannon Airport,Shannon,Ireland,SNN,52.702,-8.92482
EISG,Sligo Airport,Sligo,Ireland,SXL,54.280200958252,-8.5992097854614
EIWF,Waterford Airport,Waterford,Ireland,WAT,52.187198638916016,-7.086959838867188
EKAH,Aarhus Airport,Aarhus,Denmark,AAR,56.2999992371,10.619000434899998
EKBI,Billund Airport,Billund,Denmark,BLL,55.7402992249,9.15178012848
EKCH,Copenhagen Kastrup Airport,Copenhagen,Denmark,CPH,55.617900848389,12.656000137329
EKEB,Esbjerg Airport,Esbjerg,Denmark,EBJ,55.525902,8.5534
EKKA,Karup Airport,Karup,Denmark,KRP,56.29750061035156,9.124629974365234
EKLS,Læsø Airport,Laeso,Denmark,BYR,57.27719879150391,11.000100135803224
EKOD,Odense Airport,Odense,Denmark,ODE,55.47669982910156,10.330900192260742
EKRK,Copenhagen Roskilde Airport,Copenhagen,Denmark,RKE,55.58560180664063,12.131400108337402
EKRN,Bornholm Airport,Ronne,Denmark,RNN,55.06330108642578,14.759599685668944
EKSB,Sønderborg Airport,Soenderborg,Denmark,SGD,54.96440124511719,9.791729927062988
EKSP,Skrydstrup Air Base,Skrydstrup,Denmark,SKS,55.221048,9.26702
EKTS,Thisted Airport,Thisted,Denmark,TED,57.06880187988281,8.705220222473145
EKVD,Kolding Vamdrup Airfield,Kolding,Denmark,,55.436298,9.33092
EKVG,Vagar Airport,Vagar,Faroe Islands,FAE,62.0635986328125,-7.277219772338867
EKVJ,Stauning Airport,Stauning,Denmark,STA,55.9901008605957,8.353910446166992
EKYT,Aalborg Airport,Aalborg,Denmark,AAL,57.0927589138,9.84924316406
ELLX,Luxembourg-Findel International Airport,Luxemburg,Luxembourg,LUX,49.6233333,6.2044444
ENAL,Ålesund Airport,Alesund,Norway,AES,62.5625,6.119699954986572
ENAN,Andøya Airport,Andoya,Norway,ANX,69.292503356934,16.144199371338
ENAT,Alta Airport,Alta,Norway,ALF,69.976097106934,23.371700286865
ENBN,Brønnøysund Airport,Bronnoysund,Norway,BNN,65.461097717285,12.217499732971
ENBO,Bodø Airport,Bodo,Norway,BOO,67.26920318603516,14.365300178527832
ENBR,Bergen Airport Flesland,Bergen,Norway,BGO,60.29339981,5.218140125
ENBS,Båtsfjord Airport,Batsfjord,Norway,BJF,70.60050201416,29.691400527954
ENCN,Kristiansand Airport,Kristiansand,Norway,KRS,58.204201,8.08537
ENDU,Bardufoss Airport,Bardufoss,Norway,BDU,69.055801391602,18.540399551392
ENEV,"Harstad/Narvik Airport, Evenes",Harstad/Narvik,Norway,EVE,68.491302490234,16.678100585938
ENFG,Leirin Airport,Fagernes,Norway,VDB,61.015598297119,9.2880601882935
ENFL,Florø Airport,Floro,Norway,FRO,61.583599090576,5.0247201919556
ENGM,Oslo Lufthavn,Oslo,Norway,OSL,60.121,11.0502
ENHD,Haugesund Airport,Haugesund,Norway,HAU,59.34529876709,5.2083601951599
ENHK,Hasvik Airport,Hasvik,Norway,HAA,70.486701965332,22.139699935913
ENKB,Kristiansund Airport (Kvernberget),Kristiansund,Norway,KSU,63.111801147461,7.824520111084
ENKR,Kirkenes Airport (Høybuktmoen),Kirkenes,Norway,KKN,69.725799560547,29.891300201416
ENML,Molde Airport,Molde,Norway,MOL,62.744701385498,7.2624998092651
ENMS,Mosjøen Airport (Kjærstad),Mosjoen,Norway,MJF,65.783996582031,13.214900016785
ENNA,Banak Airport,Lakselv,Norway,LKL,70.068801879883,24.973499298096
ENNO,Notodden Airport,Notodden,Norway,NTB,59.565701,9.21222
ENOL,Ørland Airport,Orland,Norway,OLA,63.69889831542969,9.604000091552734
ENRO,Røros Airport,Roros,Norway,RRS,62.578399658203,11.342300415039
ENSB,"Svalbard Airport, Longyear",Svalbard,Norway,LYR,78.246101379395,15.465600013733
ENSO,Stord Airport,Stord,Norway,SRP,59.791900634765625,5.340849876403809
ENST,Sandnessjøen Airport (Stokka),Sandnessjoen,Norway,SSJ,65.956802368164,12.468899726868
ENTC,"Tromsø Airport,",Tromso,Norway,TOS,69.68329620361328,18.91889953613281
ENTO,"Sandefjord Airport, Torp",Sandefjord,Norway,TRF,59.1866989136,10.258600235
ENVA,Trondheim Airport Værnes,Trondheim,Norway,TRD,63.4578018,10.9239998
ENZV,Stavanger Airport Sola,Stavanger,Norway,SVG,58.876701354,5.6377801895
EPBC,Babice Airport,Warsaw,Poland,,52.26850128173828,20.910999298095703
EPGD,Gdańsk Lech Wałęsa Airport,Gdansk,Poland,GDN,54.37760162353516,18.46619987487793
EPKK,Kraków John Paul II International Airport,Krakow,Poland,KRK,50.077702,19.7848
EPKT,Katowice International Airport,Katowice,Poland,KTW,50.4743,19.08
EPPO,Poznań-Ławica Airport,Poznan,Poland,POZ,52.4210014343,16.8262996674
EPRZ,Rzeszów-Jasionka Airport,Rzeszow,Poland,RZE,50.1100006104,22.0189990997
EPSC,"Szczecin-Goleniów ""Solidarność"" Airport",Szczecin,Poland,SZZ,53.584701538100006,14.9021997452
EPWA,Warsaw Chopin Airport,Warsaw,Poland,WAW,52.1656990051,20.9671001434
EPWR,Copernicus Wrocław Airport,Wroclaw,Poland,WRO,51.1026992798,16.885799408
EPZG,Zielona Góra-Babimost Airport,Zielona Gora,Poland,IEG,52.1385002136,15.7986001968
ESCM,Uppsala Airport,Uppsala,Sweden,,59.89730072021485,17.588600158691406
ESDF,Ronneby Airport,Ronneby,Sweden,RNB,56.266700744629,15.265000343323
ESGG,Gothenburg-Landvetter Airport,Gothenborg,Sweden,GOT,57.662799835205,12.279800415039
ESGJ,Jönköping Airport,Joenkoeping,Sweden,JKG,57.757598876953125,14.068699836730955
ESGP,Gothenburg City Airport,Gothenborg,Sweden,GSE,57.7747,11.8704
ESGR,Skövde Airport,Skovde,Sweden,KVB,58.45640182495117,13.972700119018556
ESGT,Trollhättan-Vänersborg Airport,Trollhattan,Sweden,THN,58.31809997558594,12.345000267028809
ESIB,Såtenäs Air Base,Satenas,Sweden,,58.42639923095703,12.714400291442873
ESKM,Mora Airport,Mora,Sweden,MXX,60.957901,14.5114
ESKN,Stockholm Skavsta Airport,Stockholm,Sweden,NYO,58.78860092163086,16.912200927734375
ESMK,Kristianstad Airport,Kristianstad,Sweden,KID,55.92169952392578,14.08549976348877
ESMQ,Kalmar Airport,Kalkmar,Sweden,KLR,56.68550109863281,16.287599563598633
ESMS,Malmö Sturup Airport,Malmoe,Sweden,MMX,55.536305364,13.3761978149
ESMT,Halmstad Airport,Halmstad,Sweden,HAD,56.69110107421875,12.820199966430664
ESMX,Växjö Kronoberg Airport,Vaxjo,Sweden,VXO,56.92910003662109,14.727999687194824
ESND,Sveg Airport,Sveg,Sweden,EVG,62.04779815673828,14.422900199890137
ESNG,Gällivare Airport,Gallivare,Sweden,GEV,67.13240051269531,20.814599990844727
ESNK,Kramfors Sollefteå Airport,Kramfors,Sweden,KRF,63.04859924316406,17.76889991760254
ESNL,Lycksele Airport,Lycksele,Sweden,LYC,64.54830169677734,18.71619987487793
ESNN,Sundsvall-Härnösand Airport,Sundsvall,Sweden,SDL,62.528099060058594,17.443899154663086
ESNO,Örnsköldsvik Airport,Ornskoldsvik,Sweden,OER,63.40829849243164,18.989999771118164
ESNQ,Kiruna Airport,Kiruna,Sweden,KRN,67.821998596191,20.336799621582
ESNS,Skellefteå Airport,Skelleftea,Sweden,SFT,64.62480163574219,21.07690048217773
ESNU,Umeå Airport,Umea,Sweden,UME,63.791801452637,20.282800674438
ESNV,Vilhelmina Airport,Vilhelmina,Sweden,VHM,64.5791015625,16.833599090576172
ESNX,Arvidsjaur Airport,Arvidsjaur,Sweden,AJR,65.59030151367188,19.28190040588379
ESOE,Örebro Airport,Orebro,Sweden,ORB,59.22370147705078,15.038000106811523
ESOW,Stockholm Västerås Airport,Vasteras,Sweden,VST,59.58940124511719,16.63360023498535
ESPA,Luleå Airport,Lulea,Sweden,LLA,65.543800354004,22.121999740601
ESSA,Stockholm-Arlanda Airport,Stockholm,Sweden,ARN,59.651901245117,17.918600082397
ESSB,Stockholm-Bromma Airport,Stockholm,Sweden,BMA,59.354400634765625,17.941699981689453
ESSD,Borlange Airport,Borlange,Sweden,BLE,60.422000885009766,15.515199661254885
ESSL,Linköping City Airport,Linkoeping,Sweden,LPI,58.4062004089,15.6805000305
ESSP,Norrköping Airport,Norrkoeping,Sweden,NRK,58.58629989624024,16.250600814819336
ESSU,Eskilstuna Airport,Eskilstuna,Sweden,EKT,59.35110092163086,16.70840072631836
ESSV,Visby Airport,Visby,Sweden,VBY,57.662799835205,18.346200942993
ETAR,Ramstein Air Base,Ramstein,Germany,RMS,49.4369010925293,7.600279808044434
ETHL,Laupheim Air Base,Laupheim,Germany,,48.220299,9.91002
ETHN,Niederstetten Army Air Base,Niederstetten,Germany,,49.391945,9.958889
ETHS,Fassberg Air Base,Fassberg,Germany,,52.919399,10.185827
ETMN,Nordholz Naval Airbase,Nordholz,Germany,FCN,53.7677001953,8.658499717709999
ETND,Diepholz Air Base,Diepholz,Germany,,52.585556,8.342222
ETNG,Geilenkirchen Air Base,Geilenkirchen,Germany,GKE,50.9608,6.04242
ETNH,Hohn Air Base,Hohn,Germany,,54.312199,9.53817
ETNL,Rostock-Laage Airport,Laage,Germany,RLG,53.9182014465,12.2783002853
ETNS,Schleswig Air Base,Schleswig,Germany,WBG,54.459301,9.51633
ETSA,Landsberg Lech Air Base,Landsberg,Germany,,48.070599,10.906
ETSB,Büchel Air Base,Buechel,Germany,,50.1738014221,7.06333017349
ETSH,Holzdorf Air Base,Holzdorf,Germany,,51.767799,13.1677
ETSI,Ingolstadt Manching Airport,Ingolstadt,Germany,IGS,48.7156982421875,11.534000396728516
FACT,Cape Town International Airport,Cape Town,South Africa,CPT,-33.9648017883,18.6016998291
FAOR,OR Tambo International Airport,Johannesburg,South Africa,JNB,-26.1392,28.246
FALA,Lanseria Airport,Johannesburg,South Africa,HLA,-25.9384994507,27.9260997772
FAPE,Port Elizabeth Airport,Port Elizabeth,South Africa,PLZ,-33.9849014282,25.6173000336
FBMN,Maun Airport,Maun,Botswana,MUB,-19.97260093688965,23.431100845336918
FCBB,Maya-Maya Airport,Brazzaville,Congo (Brazzaville),BZV,-4.251699924468994,15.253000259399414
FCPP,Pointe Noire Airport,Pointe-noire,Congo (Brazzaville),PNR,-4.816030025482178,11.88659954071045
FEFF,Bangui M'Poko International Airport,Bangui,Central African Republic,BGF,4.39847993850708,18.518800735473636
FGBT,Bata Airport,Bata,Equatorial Guinea,BSG,1.9054700136184688,9.80568027496338
FGSL,Malabo Airport,Malabo,Equatorial Guinea,SSG,3.755270004272461,8.708720207214355
FHAW,RAF Ascension Island,Wide Awake,Saint Helena,ASI,-7.9696,-14.3937
FIMP,Sir Seewoosagur Ramgoolam International Airport,Plaisance,Mauritius,MRU,-20.430201,57.683601
FKKD,Douala International Airport,Douala,Cameroon,DLA,4.0060801506,9.71947956085
FKKR,Garoua International Airport,Garoua,Cameroon,GOU,9.33588981628418,13.370100021362305
FMCZ,Dzaoudzi Pamandzi International Airport,Dzaoudzi,Mayotte,DZA,-12.804699897766112,45.28110122680664
FMEE,Roland Garros Airport,St.-denis,Reunion,RUN,-20.88710021972656,55.51029968261719
FMMI,Ivato Airport,Antananarivo,Madagascar,TNR,-18.7969,47.478802
FMNN,Fascene Airport,Nosy-be,Madagascar,NOS,-13.3121004105,48.3148002625
FNLU,Quatro de Fevereiro Airport,Luanda,Angola,LAD,-8.85837,13.2312
FOOL,Libreville Leon M'ba International Airport,Libreville,Gabon,LBV,0.458600014448,9.4122800827
FPST,São Tomé International Airport,Sao Tome,Sao Tome and Principe,TMS,0.3781749904155731,6.712150096893311
FQMA,Maputo Airport,Maputo,Mozambique,MPM,-25.920799,32.572601
FSIA,Seychelles International Airport,Mahe,Seychelles,SEZ,-4.67434,55.521801
FTTJ,N'Djamena International Airport,N'djamena,Chad,NDJ,12.1337,15.034
FVHA,Robert Gabriel Mugabe International Airport,Harare,Zimbabwe,HRE,-17.931801,31.0928
FWKI,Lilongwe International Airport,Lilongwe,Malawi,LLW,-13.7894001007,33.78099823
FZAA,Ndjili International Airport,Kinshasa,Congo (Kinshasa),FIH,-4.38575,15.4446
FZQA,Lubumbashi International Airport,Lubumashi,Congo (Kinshasa),FBM,-11.5913000107,27.5308990479
GABS,Modibo Keita International Airport,Bamako,Mali,BKO,12.5335,-7.94994
GBYD,Banjul International Airport,Banjul,Gambia,BJL,13.338000297546388,-16.65220069885254
GCFV,Fuerteventura Airport,Fuerteventura,Spain,FUE,28.452699661254883,-13.863800048828123
GCHI,Hierro Airport,Hierro,Spain,VDE,27.81480026245117,-17.887100219726562
GCLA,La Palma Airport,Santa Cruz De La Palma,Spain,SPC,28.626499,-17.7556
GCLP,Gran Canaria Airport,Gran Canaria,Spain,LPA,27.931900024414062,-15.38659954071045
GCRR,Lanzarote Airport,Arrecife,Spain,ACE,28.945499,-13.6052
GCTS,Tenerife South Airport,Tenerife,Spain,TFS,28.044500351,-16.5725002289
GCXO,Tenerife Norte Airport,Tenerife,Spain,TFN,28.4827003479,-16.3414993286
GEML,Melilla Airport,Melilla,Spain,MLN,35.279800415,-2.9562599659
GFLL,Lungi International Airport,Freetown,Sierra Leone,FNA,8.61644,-13.1955
GLRB,Roberts International Airport,Monrovia,Liberia,ROB,6.23379,-10.3623
GMAD,Al Massira Airport,Agadir,Morocco,AGA,30.325000762939453,-9.41306972503662
GMAT,Tan Tan Airport,Tan Tan,Morocco,TTA,28.44820022583008,-11.161299705505373
GMFF,Saïss Airport,Fes,Morocco,FEZ,33.9272994995,-4.977960109709999
GMFK,Moulay Ali Cherif Airport,Er-rachidia,Morocco,ERH,31.9475002289,-4.39833021164
GMFO,Angads Airport,Oujda,Morocco,OUD,34.787200927734375,-1.92399001121521
GMMB,Ben Slimane Airport,Ben Slimane,Morocco,GMD,33.655399,-7.22145
GMME,Rabat-Salé Airport,Rabat,Morocco,RBA,34.051498,-6.75152
GMMN,Mohammed V International Airport,Casablanca,Morocco,CMN,33.36750030517578,-7.589970111846924
GMMX,Menara Airport,Marrakech,Morocco,RAK,31.6068992615,-8.03629970551
GMMZ,Ouarzazate Airport,Ouarzazate,Morocco,OZZ,30.9391002655,-6.909430027010001
GMTA,Cherif Al Idrissi Airport,Al Hociema,Morocco,AHU,35.177101135253906,-3.83951997756958
GMTN,Saniat R'mel Airport,Tetouan,Morocco,TTU,35.594299316406,-5.320020198822
GMTT,Ibn Batouta Airport,Tanger,Morocco,TNG,35.726898193400004,-5.91689014435
GOOY,Léopold Sédar Senghor International Airport,Dakar,Senegal,DKR,14.739700317382812,-17.49020004272461
GOSS,Saint Louis Airport,St. Louis,Senegal,XLS,16.050800323486328,-16.463199615478516
GQNO,Nouakchott–Oumtounsy International Airport,Nouakschott,Mauritania,NKC,18.31,-15.9697222
GQPP,Nouadhibou International Airport,Nouadhibou,Mauritania,NDB,20.9330997467041,-17.030000686645508
GVAC,Amílcar Cabral International Airport,Amilcar Cabral,Cape Verde,SID,16.7414,-22.9494
GVBA,Rabil Airport,Boa Vista,Cape Verde,BVC,16.136499404907227,-22.888900756835938
GVSV,São Pedro Airport,Sao Vicente Island,Cape Verde,VXE,16.833200454711914,-25.055299758911133
HAAB,Addis Ababa Bole International Airport,Addis Ababa,Ethiopia,ADD,8.97789001465,38.7993011475
HBBA,Bujumbura International Airport,Bujumbura,Burundi,BJM,-3.3240199089050293,29.318500518798828
HECA,Cairo International Airport,Cairo,Egypt,CAI,30.12190055847168,31.40559959411621
HEGN,Hurghada International Airport,Hurghada,Egypt,HRG,27.178300857543945,33.799400329589844
HEGR,El Gora Airport,El Gorah,Egypt,EGH,31.068559,34.129629
HELX,Luxor International Airport,Luxor,Egypt,LXR,25.671,32.7066
HEMM,Mersa Matruh Airport,Mersa-matruh,Egypt,MUH,31.3253993988,27.2217006683
HEPS,Port Said Airport,Port Said,Egypt,PSD,31.27939987182617,32.2400016784668
HESN,Aswan International Airport,Aswan,Egypt,ASW,23.9643993378,32.8199996948
HKEL,Eldoret International Airport,Eldoret,Kenya,EDL,0.4044579863548279,35.23889923095703
HKMO,Mombasa Moi International Airport,Mombasa,Kenya,MBA,-4.034830093383789,39.594200134277344
HLLB,Benina International Airport,Benghazi,Libya,BEN,32.096801757799994,20.2695007324
HRYR,Kigali International Airport,Kigali,Rwanda,KGL,-1.96863,30.1395
HSSJ,Juba International Airport,Juba,South Sudan,JUB,4.87201023102,31.6011009216
HSSS,Khartoum International Airport,Khartoum,Sudan,KRT,15.589500427246094,32.553199768066406
HTDA,Julius Nyerere International Airport,Dar Es Salaam,Tanzania,DAR,-6.87811,39.202599
HTKJ,Kilimanjaro International Airport,Kilimanjaro,Tanzania,JRO,-3.42940998077,37.0745010376
HTMW,Mwanza Airport,Mwanza,Tanzania,MWZ,-2.4444899559021,32.932701110839844
HTZA,Abeid Amani Karume International Airport,Zanzibar,Tanzania,ZNZ,-6.22202,39.224899
HUEN,Entebbe International Airport,Entebbe,Uganda,EBB,0.042386,32.443501
LATI,Tirana International Airport Mother Teresa,Tirana,Albania,TIA,41.4146995544,19.7206001282
LBBG,Burgas Airport,Bourgas,Bulgaria,BOJ,42.56959915161133,27.515199661254883
LBGO,Gorna Oryahovitsa Airport,Gorna Orechovica,Bulgaria,GOZ,43.15140151977539,25.712900161743164
LBPD,Plovdiv International Airport,Plovdiv,Bulgaria,PDV,42.067799,24.8508
LBSF,Sofia Airport,Sofia,Bulgaria,SOF,42.69669342041016,23.411436080932617
LBWN,Varna Airport,Varna,Bulgaria,VAR,43.232101,27.8251
LCLK,Larnaca International Airport,Larnaca,Cyprus,LCA,34.875099182128906,33.624900817871094
LCPH,Paphos International Airport,Paphos,Cyprus,PFO,34.71799850463867,32.48569869995117
LCRA,RAF Akrotiri,Akrotiri,Cyprus,AKT,34.590401,32.9879
LDDU,Dubrovnik Airport,Dubrovnik,Croatia,DBV,42.5614013671875,18.268199920654297
LDOS,Osijek Airport,Osijek,Croatia,OSI,45.46269989013672,18.810199737548828
LDPL,Pula Airport,Pula,Croatia,PUY,44.89350128173828,13.922200202941896
LDRI,Rijeka Airport,Rijeka,Croatia,RJK,45.21689987182617,14.570300102233888
LDSP,Split Airport,Split,Croatia,SPU,43.53889846801758,16.29800033569336
LDVA,Varaždin Airport,Varazdin,Croatia,,46.29464721679688,16.382932662963867
LDZA,Zagreb Airport,Zagreb,Croatia,ZAG,45.7429008484,16.0687999725
LDZD,Zadar Airport,Zadar,Croatia,ZAD,44.108299,15.3467
LEAB,Albacete-Los Llanos Airport,Albacete,Spain,ABC,38.9485015869,-1.86352002621
LEAL,Alicante International Airport,Alicante,Spain,ALC,38.28219985961914,-0.5581560134887695
LEAM,Almería International Airport,Almeria,Spain,LEI,36.84389877319336,-2.3701000213623047
LEAS,Asturias Airport,Aviles,Spain,OVD,43.5635986328125,-6.0346198081970215
LEBA,Córdoba Airport,Cordoba,Spain,ODB,37.84199905395508,-4.848879814147949
LEBB,Bilbao Airport,Bilbao,Spain,BIO,43.30110168457031,-2.9106099605560303
LEBL,Barcelona International Airport,Barcelona,Spain,BCN,41.2971,2.07846
LEBZ,Badajoz Airport,Badajoz,Spain,BJZ,38.891300201416016,-6.8213300704956055
LECO,A Coruña Airport,La Coruna,Spain,LCG,43.302101,-8.37726
LEGE,Girona Airport,Gerona,Spain,GRO,41.901000977,2.7605500221
LEGR,Federico Garcia Lorca Airport,Granada,Spain,GRX,37.18870162963867,-3.777359962463379
LEGT,Getafe Air Base,Madrid,Spain,,40.29410171508789,-3.723829984664917
LEIB,Ibiza Airport,Ibiza,Spain,IBZ,38.8728981018,1.3731199502899998
LEJR,Jerez Airport,Jerez,Spain,XRY,36.74459838867188,-6.060110092163086
LELC,San Javier Airport,Murcia,Spain,MJV,37.775001525878906,-0.8123890161514282
LEMD,Adolfo Suárez Madrid–Barajas Airport,Madrid,Spain,MAD,40.471926,-3.56264
LEMG,Málaga Airport,Malaga,Spain,AGP,36.67490005493164,-4.499110221862793
LEMH,Menorca Airport,Menorca,Spain,MAH,39.86259841918945,4.218649864196777
LEMO,Moron Air Base,Sevilla,Spain,OZP,37.17490005493164,-5.615940093994141
LEPP,Pamplona Airport,Pamplona,Spain,PNA,42.77000045776367,-1.6463299989700315
LERS,Reus Air Base,Reus,Spain,REU,41.14739990234375,1.1671700477600098
LERT,Rota Naval Station Airport,Rota,Spain,ROZ,36.645198822,-6.34946012497
LESA,Salamanca Airport,Salamanca,Spain,SLM,40.95209884643555,-5.501989841461182
LESB,Son Bonet Airport,Son Bonet,Spain,,39.598899841308594,2.70278000831604
LESO,San Sebastian Airport,San Sebastian,Spain,EAS,43.35649871826172,-1.7906099557876587
LEST,Santiago de Compostela Airport,Santiago,Spain,SCQ,42.89630126953125,-8.415140151977539
LESU,Pirineus - la Seu d'Urgel Airport,Seo De Urgel,Spain,LEU,42.3386,1.40917
LETO,Torrejón Airport,Madrid,Spain,TOJ,40.496700286865234,-3.4458699226379395
LEVC,Valencia Airport,Valencia,Spain,VLC,39.4893,-0.481625
LEVD,Valladolid Airport,Valladolid,Spain,VLL,41.7061004639,-4.85194015503
LEVT,Vitoria/Foronda Airport,Vitoria,Spain,VIT,42.8828010559082,-2.7244699001312256
LEVX,Vigo Airport,Vigo,Spain,VGO,42.2318000793457,-8.62677001953125
LEXJ,Santander Airport,Santander,Spain,SDR,43.42710113525391,-3.82000994682312
LEZG,Zaragoza Air Base,Zaragoza,Spain,ZAZ,41.66619873046875,-1.0415500402450562
LEZL,Sevilla Airport,Sevilla,Spain,SVQ,37.417999267578125,-5.8931097984313965
LFAC,Calais-Dunkerque Airport,Calais,France,CQF,50.962100982666016,1.954759955406189
LFAQ,Albert-Bray Airport,Albert,France,BYF,49.9715003967,2.69765996933
LFAT,Le Touquet-Côte d'Opale Airport,Le Tourquet,France,LTQ,50.51739883422852,1.6205899715423584
LFAV,Valenciennes-Denain Airport,Valenciennes,France,XVS,50.325801849365234,3.4612600803375244
LFAY,Amiens-Glisy Airport,Amiens,France,,49.873004,2.387074
LFBA,Agen-La Garenne Airport,Agen,France,AGF,44.17470169067383,0.5905560255050659
LFBD,Bordeaux-Mérignac Airport,Bordeaux,France,BOD,44.8283004761,-0.715556025505
LFBE,Bergerac-Roumanière Airport,Bergerac,France,EGC,44.82529830932617,0.5186110138893127
LFBF,Toulouse-Francazal (BA 101) Air Base,Toulouse,France,,43.54560089111328,1.3674999475479126
LFBI,Poitiers-Biard Airport,Poitiers,France,PIS,46.58769989013672,0.3066659867763519
LFBK,Montluçon-Guéret Airport,Montlucon-gueret,France,MCU,46.222599029541016,2.363960027694702
LFBL,Limoges Airport,Limoges,France,LIG,45.86280059814453,1.1794400215148926
LFBM,Mont-de-Marsan (BA 118) Air Base,Mont-de-marsan,France,,43.911701,-0.5075
LFBN,Niort-Souché Airport,Niort,France,NIT,46.313477,-0.394529
LFBO,Toulouse-Blagnac Airport,Toulouse,France,TLS,43.629101,1.36382
LFBP,Pau Pyrénées Airport,Pau,France,PUF,43.380001068115234,-0.4186109900474548
LFBR,Muret-Lherm Airport,La Rochelle,France,,43.44889831542969,1.2633299827575684
LFBT,Tarbes-Lourdes-Pyrénées Airport,Tarbes,France,LDE,43.1786994934082,-0.0064389999024569
LFBU,Angoulême-Brie-Champniers Airport,Angouleme,France,ANG,45.72919845581055,0.2214560061693191
LFSL,Brive Souillac Airport,Brive,France,BVE,45.039722,1.485556
LFBX,Périgueux-Bassillac Airport,Perigueux,France,PGX,45.19810104370117,0.815555989742279
LFBZ,Biarritz-Anglet-Bayonne Airport,Biarritz-bayonne,France,BIQ,43.4683333,-1.5311111
LFCI,Albi-Le Séquestre Airport,Albi,France,LBI,43.91389846801758,2.1130599975585938
LFCK,Castres-Mazamet Airport,Castres,France,DCM,43.55630111694336,2.289180040359497
LFCR,Rodez-Marcillac Airport,Rodez,France,RDZ,44.407901763916016,2.4826700687408447
LFDB,Montauban Airport,Montauban,France,XMW,44.02569961547852,1.3780399560928345
LFDH,Auch-Lamothe Airport,Auch,France,,43.687801,0.601667
LFDN,Rochefort-Saint-Agnant (BA 721) Airport,Rochefort,France,RCO,45.88779830932617,-0.9830560088157654
LFEH,Aubigny-sur-Nère Airport,Aubigny-sur-nere,France,,47.480556,2.394167
LFGA,Colmar-Houssen Airport,Colmar,France,CMR,48.109901428222656,7.359010219573975
LFGF,Beaune-Challanges Airport,Beaune,France,,47.005901,4.89342
LFGJ,Dole-Tavaux Airport,Dole,France,DLE,47.042686,5.435063
LFHO,Aubenas-Ardèche Méridional Airport,Aubenas-vals-lanas,France,OBS,44.544203,4.372192
LFHP,Le Puy-Loudes Airport,Le Puy,France,LPY,45.0806999206543,3.762890100479126
LFHY,Moulins-Montbeugny Airport,Moulins,France,,46.53459930419922,3.423719882965088
LFJL,Metz-Nancy-Lorraine Airport,Metz,France,ETZ,48.9821014404,6.25131988525
LFKB,Bastia-Poretta Airport,Bastia,France,BIA,42.55270004272461,9.48373031616211
LFKC,Calvi-Sainte-Catherine Airport,Calvi,France,CLY,42.5244444,8.7930556
LFKF,Figari Sud-Corse Airport,Figari,France,FSC,41.5005989074707,9.097780227661133
LFKJ,Ajaccio-Napoléon Bonaparte Airport,Ajaccio,France,AJA,41.92359924316406,8.8029203414917
LFLA,Auxerre-Branches Airport,Auxerre,France,AUF,47.85020065307617,3.497109889984131
LFLB,Chambéry-Savoie Airport,Chambery,France,CMF,45.63809967041016,5.880229949951172
LFLC,Clermont-Ferrand Auvergne Airport,Clermont-Ferrand,France,CFE,45.7867012024,3.1691699028
LFLD,Bourges Airport,Bourges,France,BOU,47.058101654052734,2.3702800273895264
LFLH,Chalon-Champforgeuil Airport,Chalon,France,,46.82609939575195,4.817629814147949
LFLI,Annemasse Airport,Annemasse,France,QNJ,46.1920013428,6.268390178680001
LFLL,Lyon Saint-Exupéry Airport,Lyon,France,LYS,45.725556,5.081111
LFLM,Mâcon-Charnay Airport,Macon,France,,46.295101,4.79577
LFLN,Saint-Yan Airport,St.-yan,France,SYT,46.41249847412109,4.0132598876953125
LFLO,Roanne-Renaison Airport,Roanne,France,RNE,46.05830001831055,4.001389980316162
LFLP,Annecy-Haute-Savoie-Mont Blanc Airport,Annecy,France,NCY,45.9308333,6.1063889
LFLS,Grenoble-Isère Airport,Grenoble,France,GNB,45.36289978027344,5.329370021820068
LFLU,Valence-Chabeuil Airport,Valence,France,VAF,44.9216,4.9699
LFLV,Vichy-Charmeil Airport,Vichy,France,VHY,46.169700622558594,3.4037399291992188
LFLW,Aurillac Airport,Aurillac,France,AUR,44.89139938354492,2.4219400882720947
LFLX,"Châteauroux-Déols ""Marcel Dassault"" Airport",Chateauroux,France,CHR,46.860278,1.721111
LFLY,Lyon-Bron Airport,Lyon,France,LYN,45.72719955444336,4.944270133972168
LFMA,Aix-en-Provence (BA 114) Airport,Aix-les-milles,France,,43.5056,5.36778
LFMD,Cannes-Mandelieu Airport,Cannes,France,CEQ,43.542,6.95348
LFMH,Saint-Étienne-Bouthéon Airport,St-Etienne,France,EBU,45.54059982299805,4.296390056610107
LFMK,Carcassonne Airport,Carcassonne,France,CCF,43.21599960327149,2.3063199520111084
LFML,Marseille Provence Airport,Marseille,France,MRS,43.439271922,5.22142410278
LFMN,Nice-Côte d'Azur Airport,Nice,France,NCE,43.6584014893,7.215869903560001
LFMP,Perpignan-Rivesaltes (Llabanère) Airport,Perpignan,France,PGF,42.74039840698242,2.8706700801849365
LFMQ,Le Castellet Airport,Le Castellet,France,CTT,43.25249862670898,5.785190105438232
LFMT,Montpellier-Méditerranée Airport,Montpellier,France,MPL,43.57619857788086,3.96301007270813
LFMU,Béziers-Vias Airport,Beziers,France,BZR,43.32350158691406,3.353899955749512
LFMV,Avignon-Caumont Airport,Avignon,France,AVN,43.90729904174805,4.901830196380615
LFMZ,Lézignan-Corbières Airfield,Lezignan-corbieres,France,,43.1758,2.73417
LFNH,Carpentras Airport,Carpentras,France,,44.02980041503906,5.078060150146484
LFOB,Paris Beauvais Tillé Airport,Beauvais,France,BVA,49.45439910888672,2.1127800941467285
LFOH,Le Havre Octeville Airport,Le Havre,France,LEH,49.53390121459961,0.0880559980869293
LFOJ,Orléans-Bricy (BA 123) Air Base,Orleans,France,ORE,47.9878005981,1.7605600357100002
LFOK,Châlons-Vatry Airport,Chalons,France,XCR,48.7733333333,4.206111111
LFOP,Rouen Airport,Rouen,France,URO,49.38420104980469,1.1748000383377075
LFOT,Tours-Val-de-Loire Airport,Tours,France,TUF,47.4322013855,0.727605998516
LFOU,Cholet Le Pontreau Airport,Cholet,France,CET,47.08209991455078,-0.8770639896392822
LFOV,Laval-Entrammes Airport,Laval,France,LVA,48.03139877319336,-0.7429860234260559
LFOZ,Orléans-Saint-Denis-de-l'Hôtel Airport,Orleans,France,,47.8969,2.16333
LFPB,Paris-Le Bourget Airport,Paris,France,LBG,48.96939849853516,2.441390037536621
LFPG,Charles de Gaulle International Airport,Paris,France,CDG,49.012798,2.55
LFPM,Melun-Villaroche Air Base,Melun,France,,48.60469818115234,2.6711199283599854
LFPN,Toussus-le-Noble Airport,Toussous-le-noble,France,TNF,48.75189971923828,2.1061899662017822
LFPO,Paris-Orly Airport,Paris,France,ORY,48.7233333,2.3794444
LFPT,Pontoise - Cormeilles-en-Vexin Airport,Pontoise,France,POX,49.096667,2.040833
LFPV,Villacoublay-Vélizy (BA 107) Air Base,Villacoublay,France,VIY,48.7741667,2.1916667
LFQA,Reims-Prunay Airport,Reims,France,,49.20869827270508,4.156579971313477
LFQB,Troyes-Barberey Airport,Troyes,France,,48.322102,4.0167
LFQG,Nevers-Fourchambault Airport,Nevers,France,NVS,47.00260162353516,3.1133298873901367
LFQQ,Lille-Lesquin Airport,Lille,France,LIL,50.563332,3.086886
LFQT,Merville-Calonne Airport,Merville,France,HZB,50.61840057373047,2.642240047454834
LFRB,Brest Bretagne Airport,Brest,France,BES,48.447898864746094,-4.418540000915527
LFRC,Cherbourg-Maupertus Airport,Cherbourg,France,CER,49.65010070800781,-1.4702800512313845
LFRD,Dinard-Pleurtuit-Saint-Malo Airport,Dinard,France,DNR,48.58769989013672,-2.0799601078033447
LFRG,Deauville-Saint-Gatien Airport,Deauville,France,DOL,49.3652992249,0.154305994511
LFRH,Lorient South Brittany (Bretagne Sud) Airport,Lorient,France,LRT,47.76060104370117,-3.440000057220459
LFRI,La Roche-sur-Yon Airport,La Roche-sur-yon,France,EDM,46.70190048217773,-1.3786300420761108
LFRJ,Landivisiau Air Base,Landivisiau,France,LDV,48.53030014038086,-4.151639938354492
LFRK,Caen-Carpiquet Airport,Caen,France,CFR,49.173301696777344,-0.449999988079071
LFRM,Le Mans-Arnage Airport,Le Mans,France,LME,47.94860076904297,0.2016669958829879
LFRN,Rennes-Saint-Jacques Airport,Rennes,France,RNS,48.0694999695,-1.73478996754
LFRO,Lannion-Côte de Granit Airport,Lannion,France,LAI,48.754398,-3.47166
LFRQ,Quimper-Cornouaille Airport,Quimper,France,UIP,47.97499847412109,-4.167789936065674
LFRS,Nantes Atlantique Airport,Nantes,France,NTE,47.153198242200006,-1.61073005199
LFRT,Saint-Brieuc-Armor Airport,St.-brieuc Armor,France,SBK,48.5378,-2.85444
LFRU,Morlaix-Ploujean Airport,Morlaix,France,MXN,48.6031990051,-3.81577992439
LFRV,Vannes-Meucon Airport,Vannes,France,VNE,47.72330093383789,-2.718559980392456
LFRZ,Saint-Nazaire-Montoir Airport,St.-nazaire,France,SNR,47.3105556,-2.1566667
LFSB,EuroAirport Basel-Mulhouse-Freiburg Airport,Mulhouse,France,BSL,47.59,7.5291667
LFSD,Dijon-Bourgogne Airport,Dijon,France,DIJ,47.268902,5.09
LFSG,Épinal-Mirecourt Airport,Epinal,France,EPL,48.325001,6.06998
LFSM,Montbéliard-Courcelles Airfield,Montbeliard,France,,47.487,6.79054
LFSN,Nancy-Essey Airport,Nancy,France,ENC,48.69210052490234,6.230460166931152
LFST,Strasbourg Airport,Strasbourg,France,SXB,48.53829956054688,7.628230094909668
LFTH,Toulon-Hyères Airport,Hyeres,France,TLN,43.0973014832,6.14602994919
LFTW,Nîmes-Arles-Camargue Airport,Nimes,France,FNI,43.75740051269531,4.4163498878479
LGAD,Andravida Air Base,Andravida,Greece,PYR,37.9207,21.292601
LGAL,Dimokritos Airport,Alexandroupolis,Greece,AXD,40.855899810791016,25.956300735473636
LGBL,Nea Anchialos Airport,Nea Anghialos,Greece,VOL,39.21960067749024,22.794300079345703
LGEL,Elefsis Airport,Elefsis,Greece,,38.06380081176758,23.55599975585937
LGHI,Chios Island National Airport,Chios,Greece,JKH,38.34320068359375,26.140600204467773
LGIO,Ioannina Airport,Ioannina,Greece,IOA,39.6963996887207,20.82250022888184
LGIR,Heraklion International Nikos Kazantzakis Airport,Heraklion,Greece,HER,35.3396987915,25.1802997589
LGKA,Kastoria National Airport,Kastoria,Greece,KSO,40.4463005066,21.2821998596
LGKC,Kithira Airport,Kithira,Greece,KIT,36.2742996216,23.0170001984
LGKF,Kefallinia Airport,Keffallinia,Greece,EFL,38.12009811401367,20.5004997253418
LGKL,Kalamata Airport,Kalamata,Greece,KLX,37.06829833984375,22.02549934387207
LGKO,Kos Airport,Kos,Greece,KGS,36.79330062866211,27.091699600219727
LGKP,Karpathos Airport,Karpathos,Greece,AOK,35.4213981628418,27.145999908447266
LGKR,Ioannis Kapodistrias International Airport,Kerkyra/corfu,Greece,CFU,39.601898193359375,19.911699295043945
LGKS,Kasos Airport,Kasos,Greece,KSJ,35.4213981628,26.9099998474
LGKV,Alexander the Great International Airport,Kavala,Greece,KVA,40.91329956054688,24.619199752807617
LGKZ,Filippos Airport,Kozani,Greece,KZI,40.28609848022461,21.84079933166504
LGLE,Leros Airport,Leros,Greece,LRS,37.184898,26.800301
LGLM,Limnos Airport,Limnos,Greece,LXS,39.917098999,25.236299514799995
LGMG,Megara Airport,Megara,Greece,,37.98109817504883,23.36540031433105
LGMK,Mikonos Airport,Mykonos,Greece,JMK,37.43510055541992,25.348100662231445
LGMT,Mytilene International Airport,Mytilini,Greece,MJT,39.0567016602,26.5983009338
LGPZ,Aktion National Airport,Preveza,Greece,PVK,38.92549896240234,20.765300750732425
LGRP,Diagoras Airport,Rhodos,Greece,RHO,36.405399322509766,28.086200714111328
LGRX,Araxos Airport,Patras,Greece,GPA,38.1511,21.4256
LGSA,Chania International Airport,Chania,Greece,CHQ,35.531700134277344,24.14970016479492
LGSK,Skiathos Island National Airport,Skiathos,Greece,JSI,39.17710113525391,23.503700256347656
LGSM,Samos Airport,Samos,Greece,SMI,37.68999862670898,26.911699295043945
LGSR,Santorini Airport,Thira,Greece,JTR,36.399200439453125,25.47929954528809
LGST,Sitia Airport,Sitia,Greece,JSH,35.21609878540039,26.101299285888672
LGSY,Skiros Airport,Skiros,Greece,SKU,38.9676017761,24.4871997833
LGTG,Tanagra Air Base,Tanagra,Greece,,38.339802,23.565001
LGTL,Kasteli Airport,Kasteli,Greece,,35.192001,25.327
LGTS,Thessaloniki Macedonia International Airport,Thessaloniki,Greece,SKG,40.51969909667969,22.97089958190918
LGZA,"Zakynthos International Airport ""Dionysios Solomos""",Zakynthos,Greece,ZTH,37.7509,20.8843
LHBP,Budapest Liszt Ferenc International Airport,Budapest,Hungary,BUD,47.42976,19.261093
LHDC,Debrecen International Airport,Debrecen,Hungary,DEB,47.48889923095703,21.61529922485352
LHKE,Kecskemét Airport,Kecskemet,Hungary,,46.91749954223633,19.74920082092285
LIBD,Bari Karol Wojtyła Airport,Bari,Italy,BRI,41.138901,16.760599
LIBF,"Foggia ""Gino Lisa"" Airport",Foggia,Italy,FOG,41.432899,15.535
LIBG,"Taranto-Grottaglie ""Marcello Arlotta"" Airport",Grottaglie,Italy,TAR,40.517502,17.4032
LIBP,Pescara International Airport,Pescara,Italy,PSR,42.431702,14.1811
LIBR,Brindisi – Salento Airport,Brindisi,Italy,BDS,40.6576,17.947001
LICA,Lamezia Terme Airport,Lamezia,Italy,SUF,38.905399,16.2423
LICC,Catania-Fontanarossa Airport,Catania,Italy,CTA,37.466801,15.0664
LICD,Lampedusa Airport,Lampedusa,Italy,LMP,35.497898,12.6181
LICG,Pantelleria Airport,Pantelleria,Italy,PNL,36.816502,11.9689
LICJ,Falcone–Borsellino Airport,Palermo,Italy,PMO,38.175999,13.091
LICP,Palermo-Boccadifalco Airport,Palermo,Italy,,38.110802,13.3133
LICR,Reggio Calabria Airport,Reggio Calabria,Italy,REG,38.071201,15.6516
LICT,Vincenzo Florio Airport Trapani-Birgi,Trapani,Italy,TPS,37.9114,12.488
LICZ,Sigonella Navy Air Base,Sigonella,Italy,NSY,37.401699,14.9224
LIEA,Alghero-Fertilia Airport,Alghero,Italy,AHO,40.632099,8.29077
LIEE,Cagliari Elmas Airport,Cagliari,Italy,CAG,39.251499,9.05428
LIEO,Olbia Costa Smeralda Airport,Olbia,Italy,OLB,40.898701,9.51763
LIMB,Milano-Bresso Airfield,Milano,Italy,,45.542198,9.20333
LIMC,Malpensa International Airport,Milano,Italy,MXP,45.6306,8.72811
LIME,Il Caravaggio International Airport,Bergamo,Italy,BGY,45.673901,9.70417
LIMF,Turin Airport,Torino,Italy,TRN,45.200802,7.64963
LIMG,Villanova D'Albenga International Airport,Albenga,Italy,ALL,44.050598,8.12743
LIMJ,Genoa Cristoforo Colombo Airport,Genoa,Italy,GOA,44.4133,8.8375
LIML,Milano Linate Airport,Milan,Italy,LIN,45.445099,9.27674
LIMP,Parma Airport,Parma,Italy,PMF,44.824501,10.2964
LIMZ,Cuneo International Airport,Cuneo,Italy,CUF,44.547001,7.62322
LIPB,Bolzano Airport,Bolzano,Italy,BZO,46.460201,11.3264
LIPE,Bologna Guglielmo Marconi Airport,Bologna,Italy,BLQ,44.5354,11.2887
LIPH,Treviso-Sant'Angelo Airport,Treviso,Italy,TSF,45.648399,12.1944
LIPN,Verona-Boscomantico Airport,Verona,Italy,,45.472,10.9279
LIPO,Brescia Airport,Brescia,Italy,VBS,45.428902,10.3306
LIPQ,Trieste–Friuli Venezia Giulia Airport,Ronchi De Legionari,Italy,TRS,45.827499,13.4722
LIPR,Federico Fellini International Airport,Rimini,Italy,RMI,44.020302,12.6117
LIPU,Padova Airport,Padova,Italy,QPA,45.395802,11.8479
LIPX,Verona Villafranca Airport,Villafranca,Italy,VRN,45.395699,10.8885
LIPZ,Venice Marco Polo Airport,Venice,Italy,VCE,45.505299,12.3519
LIQS,Siena-Ampugnano Airport,Siena,Italy,SAY,43.256302,11.255
LIRA,Ciampino–G. B. Pastine International Airport,Rome,Italy,CIA,41.7994,12.5949
LIRE,Pratica Di Mare Air Base,Pratica Di Mare,Italy,,41.654499,12.4452
LIRF,Leonardo da Vinci–Fiumicino Airport,Rome,Italy,FCO,41.8002778,12.2388889
LIRJ,Marina Di Campo Airport,Marina Di Campo,Italy,EBA,42.7603,10.2394
LIRN,Naples International Airport,Naples,Italy,NAP,40.886002,14.2908
LIRP,Pisa International Airport,Pisa,Italy,PSA,43.683899,10.3927
LIRQ,Peretola Airport,Florence,Italy,FLR,43.810001,11.2051
LIRS,Grosseto Air Base,Grosseto,Italy,GRS,42.759701,11.0719
LIRU,Urbe Airport,Rome,Italy,,41.9519,12.4989
LIRZ,Perugia San Francesco d'Assisi – Umbria International Airport,Perugia,Italy,PEG,43.095901,12.5132
LJLJ,Ljubljana Jože Pučnik Airport,Ljubljana,Slovenia,LJU,46.223701,14.4576
LJMB,Maribor Airport,Maribor,Slovenia,MBX,46.47990036010742,15.686100006103516
LJPZ,Portoroz Airport,Portoroz,Slovenia,POW,45.4734001159668,13.614999771118164
LKCS,České Budějovice Airport,Ceske Budejovice,Czech Republic,,48.9463996887207,14.427499771118164
LKHK,Hradec Králové Airport,Hradec Kralove,Czech Republic,,50.253201,15.8452
LKKB,Kbely Air Base,Praha,Czech Republic,,50.12139892578125,14.54360008239746
LKKU,Kunovice Airport,Kunovice,Czech Republic,UHE,49.02939987182617,17.439699172973633
LKKV,Karlovy Vary International Airport,Karlovy Vary,Czech Republic,KLV,50.20299911499024,12.914999961853027
LKMH,Mnichovo Hradiště Airport,Mnichovo Hradiste,Czech Republic,,50.54019927978516,15.006600379943848
LKMT,Ostrava Leos Janáček Airport,Ostrava,Czech Republic,OSR,49.6963005065918,18.111099243164062
LKPD,Pardubice Airport,Pardubice,Czech Republic,PED,50.01340103149414,15.73859977722168
LKPO,Přerov Air Base,Prerov,Czech Republic,PRV,49.42580032348633,17.404699325561523
LKPR,Václav Havel Airport Prague,Prague,Czech Republic,PRG,50.1008,14.26
LKTB,Brno-Tuřany Airport,Brno,Czech Republic,BRQ,49.15129852294922,16.694400787353516
LKVO,Vodochody Airport,Vodochody,Czech Republic,VOD,50.216599,14.3958
LLBG,Ben Gurion International Airport,Tel-aviv,Israel,TLV,32.01139831542969,34.88669967651367
LLET,Eilat Airport,Elat,Israel,ETH,29.56130027770996,34.96009826660156
LLHA,Haifa International Airport,Haifa,Israel,HFA,32.80939865112305,35.04309844970703
LLNV,Nevatim Air Base,Nevatim,Israel,VTM,31.2082996368,35.012298584
LLOV,Ovda International Airport,Ovda,Israel,VDA,29.94029998779297,34.93579864501953
LLSD,Sde Dov Airport,Tel-aviv,Israel,SDV,32.11470031738281,34.78219985961914
LMML,Malta International Airport,Malta,Malta,MLA,35.857498,14.4775
LOAN,Wiener Neustadt East Airport,Wiener Neustadt Ost,Austria,,47.843299865722656,16.260099411010742
LOWG,Graz Airport,Graz,Austria,GRZ,46.9911003112793,15.439599990844728
LOWI,Innsbruck Airport,Innsbruck,Austria,INN,47.260201,11.344
LOWL,Linz Hörsching Airport,Linz,Austria,LNZ,48.2332,14.1875
LOWS,Salzburg Airport,Salzburg,Austria,SZG,47.7933006287,13.0043001175
LOWW,Vienna International Airport,Vienna,Austria,VIE,48.110298156738,16.569700241089
LOXZ,Hinterstoisser Air Base,Zeltweg,Austria,,47.202801,14.7442
LPAR,Alverca Air Base,Alverca,Portugal,AVR,38.883301,-9.0301
LPAZ,Santa Maria Airport,Santa Maria (island),Portugal,SMA,36.97140121459961,-25.17060089111328
LPBG,Bragança Airport,Braganca,Portugal,BGC,41.8578,-6.70713
LPBJ,Beja Airport / Airbase,Beja (madeira),Portugal,BYJ,38.078899,-7.9324
LPCS,Cascais Airport,Cascais,Portugal,CAT,38.724998,-9.35523
LPEV,Évora Airport,Evora,Portugal,,38.533501,-7.88964
LPFL,Flores Airport,Flores,Portugal,FLW,39.455299377441406,-31.13139915466309
LPFR,Faro Airport,Faro,Portugal,FAO,37.0144004822,-7.96590995789
LPGR,Graciosa Airport,Graciosa Island,Portugal,GRW,39.09220123291016,-28.029800415039062
LPHR,Horta Airport,Horta,Portugal,HOR,38.519901275634766,-28.715900421142575
LPLA,Lajes Airport,Lajes (terceira Island),Portugal,TER,38.761799,-27.090799
LPOV,Ovar Air Base,Ovar,Portugal,,40.915901,-8.64592
LPPD,João Paulo II Airport,Ponta Delgada,Portugal,PDL,37.7411994934,-25.6979007721
LPPI,Pico Airport,Pico,Portugal,PIX,38.554298,-28.441299
LPPM,Portimão Airport,Portimao,Portugal,PRM,37.1493,-8.58396
LPPR,Francisco de Sá Carneiro Airport,Porto,Portugal,OPO,41.2481002808,-8.68138980865
LPPS,Porto Santo Airport,Porto Santo,Portugal,PXO,33.0733985901,-16.3500003815
LPPT,Humberto Delgado Airport (Lisbon Portela Airport),Lisbon,Portugal,LIS,38.7813,-9.13592
LPSJ,São Jorge Airport,Sao Jorge Island,Portugal,SJZ,38.66550064086914,-28.175800323486328
LPVR,Vila Real Airport,Vila Real,Portugal,VRL,41.2743,-7.72047
LPVZ,Aerodromo Goncalves Lobato (Viseu Airport),Viseu,Portugal,VSE,40.725498,-7.88899
LQMO,Mostar International Airport,Mostar,Bosnia and Herzegovina,OMO,43.282901763916016,17.84589958190918
LQSA,Sarajevo International Airport,Sarajevo,Bosnia and Herzegovina,SJJ,43.82460021972656,18.331499099731445
LRAR,Arad International Airport,Arad,Romania,ARW,46.17660140991211,21.261999130249023
LRBC,Bacău Airport,Bacau,Romania,BCM,46.52190017700195,26.91029930114746
LRBS,Băneasa International Airport,Bucharest,Romania,BBU,44.50320053100586,26.102100372314453
LRCK,Mihail Kogălniceanu International Airport,Constanta,Romania,CND,44.36220169067383,28.488300323486328
LRCL,Cluj-Napoca International Airport,Cluj-napoca,Romania,CLJ,46.78519821166992,23.686199188232425
LRCV,Craiova Airport,Craiova,Romania,CRA,44.31809997558594,23.888599395751957
LRIA,Iaşi Airport,Iasi,Romania,IAS,47.17850112915039,27.6205997467041
LROD,Oradea International Airport,Oradea,Romania,OMR,47.025299072265625,21.90250015258789
LROP,Henri Coandă International Airport,Bucharest,Romania,OTP,44.5711111,26.085
LRSB,Sibiu International Airport,Sibiu,Romania,SBZ,45.78559875488281,24.09129905700684
LRSM,Satu Mare Airport,Satu Mare,Romania,SUJ,47.70330047607422,22.88570022583008
LRSV,Suceava Stefan cel Mare Airport,Suceava,Romania,SCV,47.6875,26.35409927368164
LRTC,Tulcea Airport,Tulcea,Romania,TCE,45.0625,28.71430015563965
LRTM,Transilvania Târgu Mureş International Airport,Tirgu Mures,Romania,TGM,46.46770095825195,24.412500381469727
LRTR,Timişoara Traian Vuia Airport,Timisoara,Romania,TSR,45.80989837646485,21.337900161743164
LSGC,Les Eplatures Airport,Les Eplatures,Switzerland,,47.0839004517,6.792840003970001
LSGG,Geneva Cointrin International Airport,Geneva,Switzerland,GVA,46.23809814453125,6.108950138092041
LSGK,Saanen Airport,Saanen,Switzerland,,46.4874992371,7.25083017349
LSGS,Sion Airport,Sion,Switzerland,SIR,46.2196006775,7.326759815220001
LSMD,Dübendorf Air Base,Dubendorf,Switzerland,,47.398601532,8.648229599
LSME,Emmen Air Base,Emmen,Switzerland,EML,47.092444,8.305184
LSMP,Payerne Air Base,Payerne,Switzerland,,46.8432,6.91506004333
LSZA,Lugano Airport,Lugano,Switzerland,LUG,46.00429916379999,8.9105796814
LSZB,Bern Belp Airport,Bern,Switzerland,BRN,46.914100647,7.497149944309999
LSZG,Grenchen Airport,Grenchen,Switzerland,ZHI,47.181599,7.41719
LSZH,Zürich Airport,Zurich,Switzerland,ZRH,47.464699,8.54917
LSZR,St Gallen Altenrhein Airport,Altenrhein,Switzerland,ACH,47.4850006104,9.560770034789998
LSZS,Samedan Airport,Samedan,Switzerland,SMV,46.53409957885742,9.884110450744627
LTAC,Esenboğa International Airport,Ankara,Turkey,ESB,40.1281013489,32.995098114
LTAD,Etimesgut Air Base,Ankara,Turkey,ANK,39.949798584,32.6885986328
LTAE,Akıncı Air Base,Ankara,Turkey,,40.0788993835,32.5656013489
LTAF,Adana Airport,Adana,Turkey,ADA,36.9822006226,35.2803993225
LTAG,İncirlik Air Base,Adana,Turkey,UAB,37.0021018982,35.4258995056
LTAH,Afyon Airport,Afyon,Turkey,AFY,38.726398468,30.6011009216
LTAI,Antalya International Airport,Antalya,Turkey,AYT,36.898701,30.800501
LTAJ,Gaziantep International Airport,Gaziantep,Turkey,GZT,36.9472007751,37.4786987305
LTAN,Konya Airport,Konya,Turkey,KYA,37.979,32.561901
LTAP,Amasya Merzifon Airport,Merzifon,Turkey,MZH,40.829399,35.521999
LTAR,Sivas Nuri Demirağ Airport,Sivas,Turkey,VAS,39.813801,36.9035
LTAT,Malatya Erhaç Airport,Malatya,Turkey,MLX,38.4352989197,38.0909996033
LTAU,Kayseri Erkilet Airport,Kayseri,Turkey,ASR,38.770401001,35.4953994751
LTAW,Tokat Airport,Tokat,Turkey,TJK,40.307430267333984,36.367408752441406
LTAY,Çardak Airport,Denizli,Turkey,DNZ,37.7855987549,29.7012996674
LTBA,Atatürk International Airport,Istanbul,Turkey,ISL,40.976898,28.8146
LTBF,Balıkesir Merkez Airport,Balikesir,Turkey,BZI,39.61930084228516,27.926000595092773
LTBG,Bandırma Airport,Bandirma,Turkey,BDM,40.31800079345703,27.97769927978516
LTBJ,Adnan Menderes International Airport,Izmir,Turkey,ADB,38.2924003601,27.156999588
LTBQ,Cengiz Topel Airport,Topel,Turkey,KCO,40.73500061035156,30.08329963684082
LTBS,Dalaman International Airport,Dalaman,Turkey,DLM,36.7131004333,28.7924995422
LTCA,Elazığ Airport,Elazig,Turkey,EZS,38.6068992615,39.2914009094
LTCC,Diyarbakir Airport,Diyabakir,Turkey,DIY,37.893901825,40.2010002136
LTCD,Erzincan Airport,Erzincan,Turkey,ERC,39.7102012634,39.5270004272
LTCE,Erzurum International Airport,Erzurum,Turkey,ERZ,39.9565010071,41.17020034789999
LTCG,Trabzon International Airport,Trabzon,Turkey,TZX,40.99509811401367,39.78969955444336
LTCI,Van Ferit Melen Airport,Van,Turkey,VAN,38.46820068359375,43.332298278808594
LTCJ,Batman Airport,Batman,Turkey,BAL,37.9290008545,41.1166000366
LTCL,Siirt Airport,Siirt,Turkey,SXZ,37.97890090942383,41.84040069580078
LTFB,Selçuk Efes Airport,Izmir,Turkey,,37.95069885253906,27.32900047302246
LUKK,Chişinău International Airport,Chisinau,Moldova,KIV,46.92770004272461,28.93099975585937
LWOH,Ohrid St. Paul the Apostle Airport,Ohrid,Macedonia,OHD,41.18,20.7423
LWSK,Skopje Alexander the Great Airport,Skopje,Macedonia,SKP,41.961601,21.621401
LXGB,Gibraltar Airport,Gibraltar,Gibraltar,GIB,36.1511993408,-5.3496599197400005
LYBE,Belgrade Nikola Tesla Airport,Belgrade,Serbia,BEG,44.8184013367,20.3090991974
LYNI,Nis Airport,Nis,Serbia,INI,43.337299,21.853701
LYPG,Podgorica Airport,Podgorica,Montenegro,TGD,42.359402,19.2519
BKPR,Priština International Airport,Pristina,Serbia,PRN,42.5728,21.035801
LYTV,Tivat Airport,Tivat,Montenegro,TIV,42.40470123291016,18.72330093383789
LZIB,M. R. Štefánik Airport,Bratislava,Slovakia,BTS,48.17020034790039,17.21269989013672
LZKZ,Košice Airport,Kosice,Slovakia,KSC,48.66310119628906,21.241100311279297
LZPP,Piešťany Airport,Piestany,Slovakia,PZY,48.62519836425781,17.828399658203125
LZSL,Sliač Airport,Sliac,Slovakia,SLD,48.63779830932617,19.13409996032715
LZTN,Trenčín Airport,Trencin,Slovakia,,48.8650016785,17.9923000336
LZTT,Poprad-Tatry Airport,Poprad,Slovakia,TAT,49.073600769,20.2411003113
MBPV,Providenciales Airport,Providenciales,Turks and Caicos Islands,PLS,21.77359962463379,-72.26589965820312
MDLR,Casa De Campo International Airport,La Romana,Dominican Republic,LRM,18.45070075988769,-68.91179656982422
MDPC,Punta Cana International Airport,Punta Cana,Dominican Republic,PUJ,18.5673999786,-68.36340332030001
MDPP,Gregorio Luperon International Airport,Puerto Plata,Dominican Republic,POP,19.75790023803711,-70.56999969482422
MDSD,Las Américas International Airport,Santo Domingo,Dominican Republic,SDQ,18.42970085144,-69.668899536133
MGGT,La Aurora Airport,Guatemala City,Guatemala,GUA,14.5833,-90.527496
MHLM,Ramón Villeda Morales International Airport,San Pedro Sula,Honduras,SAP,15.4526,-87.923599
MKJP,Norman Manley International Airport,Kingston,Jamaica,KIN,17.935699462890625,-76.7874984741211
MKJS,Sangster International Airport,Montego Bay,Jamaica,MBJ,18.503700256347656,-77.91339874267578
MMGL,Don Miguel Hidalgo Y Costilla International Airport,Guadalajara,Mexico,GDL,20.52179908752441,-103.31099700927734
MMMX,Licenciado Benito Juarez International Airport,Mexico City,Mexico,MEX,19.4363,-99.072098
MMPR,Licenciado Gustavo Díaz Ordaz International Airport,Puerto Vallarta,Mexico,PVR,20.680099487304688,-105.25399780273438
MMQT,Querétaro Intercontinental Airport,Queretaro,Mexico,QRO,20.6173,-100.185997
MMTO,Licenciado Adolfo Lopez Mateos International Airport,Toluca,Mexico,TLC,19.3370990753,-99.56600189210002
MMUN,Cancún International Airport,Cancun,Mexico,CUN,21.036500930800003,-86.8770980835
MPDA,Enrique Malek International Airport,David,Panama,DAV,8.390999794006348,-82.43499755859375
MPTO,Tocumen International Airport,Panama City,Panama,PTY,9.0713596344,-79.3834991455
MRLB,Daniel Oduber Quiros International Airport,Liberia,Costa Rica,LIR,10.5933,-85.544403
MROC,Juan Santamaria International Airport,San Jose,Costa Rica,SJO,9.993860244750977,-84.20880126953125
MSLP,Monseñor Óscar Arnulfo Romero International Airport,San Salvador,El Salvador,SAL,13.4409,-89.055702
MTPP,Toussaint Louverture International Airport,Port-au-prince,Haiti,PAP,18.57999992370605,-72.2925033569336
MUCC,Jardines Del Rey Airport,Cunagua,Cuba,CCC,22.4610004425,-78.32839965820001
MUCL,Vilo Acuña International Airport,Cayo Largo del Sur,Cuba,CYO,21.6165008545,-81.5459976196
MUCM,Ignacio Agramonte International Airport,Camaguey,Cuba,CMW,21.420299530029297,-77.84750366210938
MUCU,Antonio Maceo International Airport,Santiago De Cuba,Cuba,SCU,19.96980094909668,-75.83540344238281
MUHA,José Martí International Airport,Havana,Cuba,HAV,22.989200592041016,-82.40910339355469
MUHG,Frank Pais International Airport,Holguin,Cuba,HOG,20.785600662231445,-76.31510162353516
MUSC,Abel Santamaria Airport,Santa Clara,Cuba,SNU,22.49220085144043,-79.943603515625
MUVR,Juan Gualberto Gomez International Airport,Varadero,Cuba,VRA,23.034400939941406,-81.435302734375
MWCR,Owen Roberts International Airport,Georgetown,Cayman Islands,GCM,19.2928009033,-81.3576965332
MYAM,Leonard M Thompson International Airport,Marsh Harbor,Bahamas,MHH,26.5114,-77.083503
MYEF,Exuma International Airport,Great Exuma,Bahamas,GGT,23.5625991821,-75.8779983521
MYEH,North Eleuthera Airport,North Eleuthera,Bahamas,ELH,25.474899292,-76.6835021973
MYGF,Grand Bahama International Airport,Freeport,Bahamas,FPO,26.5587005615,-78.695602417
MYNN,Lynden Pindling International Airport,Nassau,Bahamas,NAS,25.0389995575,-77.46620178219999
MYSM,San Salvador Airport,Cockburn Town,Bahamas,ZSA,24.06329917907715,-74.52400207519531
OAHR,Herat Airport,Herat,Afghanistan,HEA,34.209999084472656,62.22829818725586
OAKB,Hamid Karzai International Airport,Kabul,Afghanistan,KBL,34.565899,69.212303
OAKN,Kandahar Airport,Kandahar,Afghanistan,KDH,31.505800247192383,65.8478012084961
OAMS,Mazar I Sharif Airport,Mazar-i-sharif,Afghanistan,MZR,36.70690155029297,67.20970153808594
OBBI,Bahrain International Airport,Bahrain,Bahrain,BAH,26.27079963684082,50.63359832763672
OBBS,Sheik Isa Air Base,Bahrain,Bahrain,,25.918399810791016,50.590599060058594
OEDF,King Fahd International Airport,Dammam,Saudi Arabia,DMM,26.471200942993164,49.79790115356445
OEDR,King Abdulaziz Air Base,Dhahran,Saudi Arabia,DHA,26.265399932900003,50.1520004272
OEGN,Jizan Regional Airport,Gizan,Saudi Arabia,GIZ,16.901100158691406,42.58580017089844
OEGS,Gassim Airport,Gassim,Saudi Arabia,ELQ,26.30279922485352,43.77439880371094
OEHL,Ha'il Airport,Hail,Saudi Arabia,HAS,27.437901,41.686298
OEJN,King Abdulaziz International Airport,Jeddah,Saudi Arabia,JED,21.6796,39.156502
OEMA,Prince Mohammad Bin Abdulaziz Airport,Madinah,Saudi Arabia,MED,24.5534,39.705101
OERK,King Khaled International Airport,Riyadh,Saudi Arabia,RUH,24.957599639892575,46.69879913330078
OERR,Arar Domestic Airport,Arar,Saudi Arabia,RAE,30.90660095214844,41.13819885253906
OESH,Sharurah Airport,Sharurah,Saudi Arabia,SHW,17.466899871826172,47.12139892578125
OETB,Tabuk Airport,Tabuk,Saudi Arabia,TUU,28.3654,36.6189
OETF,Ta’if Regional Airport,Taif,Saudi Arabia,TIF,21.483001,40.543442
OEWJ,Al Wajh Domestic Airport,Wejh,Saudi Arabia,EJH,26.19860076904297,36.47639846801758
OEYN,Prince Abdulmohsin Bin Abdulaziz Airport,Yenbo,Saudi Arabia,YNB,24.144199,38.0634
OIAW,Ahwaz Airport,Ahwaz,Iran,AWZ,31.3374004364,48.7620010376
OIBB,Bushehr Airport,Bushehr,Iran,BUZ,28.9447994232,50.8345985413
OICS,Sanandaj Airport,Sanandaj,Iran,SDG,35.24589920043945,47.00920104980469
OIFM,Esfahan Shahid Beheshti International Airport,Esfahan,Iran,IFN,32.75080108642578,51.86130142211914
OIGG,Sardar-e-Jangal Airport,Rasht,Iran,RAS,37.323333,49.617778
OIII,Mehrabad International Airport,Teheran,Iran,THR,35.68920135498047,51.31340026855469
OIKK,Kerman Airport,Kerman,Iran,KER,30.2744007111,56.9510993958
OIKQ,Dayrestan Airport,Gheshm I.,Iran,,26.754600524902344,55.90240097045898
OISS,Shiraz Shahid Dastghaib International Airport,Shiraz,Iran,SYZ,29.53919982910156,52.58980178833008
OITT,Tabriz International Airport,Tabriz,Iran,TBZ,38.1338996887207,46.23500061035156
OIYY,Shahid Sadooghi Airport,Yazd,Iran,AZD,31.9048995972,54.2765007019
OIZH,Zahedan International Airport,Zahedan,Iran,ZAH,29.47570037841797,60.90620040893555
OJAI,Queen Alia International Airport,Amman,Jordan,AMM,31.7226009369,35.9931983948
OJAM,Amman-Marka International Airport,Amman,Jordan,ADJ,31.972700119018555,35.991600036621094
OJAQ,Aqaba King Hussein International Airport,Aqaba,Jordan,AQJ,29.61160087585449,35.01810073852539
OKBK,Kuwait International Airport,Kuwait,Kuwait,KWI,29.226600646972656,47.96889877319336
OLBA,Beirut Rafic Hariri International Airport,Beirut,Lebanon,BEY,33.820899963378906,35.488399505615234
OMAA,Abu Dhabi International Airport,Abu Dhabi,United Arab Emirates,AUH,24.433000564575195,54.651100158691406
OMAD,Bateen Airport,Abu Dhabi,United Arab Emirates,AZI,24.428300857543945,54.458099365234375
OMAM,Al Dhafra Air Base,Abu Dhabi,United Arab Emirates,DHF,24.248199462900004,54.5476989746
OMDB,Dubai International Airport,Dubai,United Arab Emirates,DXB,25.2527999878,55.3643989563
OMFJ,Fujairah International Airport,Fujeirah,United Arab Emirates,FJR,25.112199783325195,56.32400131225586
OMRK,Ras Al Khaimah International Airport,Ras Al Khaimah,United Arab Emirates,RKT,25.613500595092773,55.93880081176758
OMSJ,Sharjah International Airport,Sharjah,United Arab Emirates,SHJ,25.32859992980957,55.5172004699707
OOMS,Muscat International Airport,Muscat,Oman,MCT,23.593299865722656,58.284400939941406
OOSA,Salalah Airport,Salalah,Oman,SLL,17.038700103759766,54.09130096435547
OOTH,Thumrait Air Base,Thumrait,Oman,TTH,17.666000366210938,54.024600982666016
OPKC,Jinnah International Airport,Karachi,Pakistan,KHI,24.9065,67.160797
OPLA,Alama Iqbal International Airport,Lahore,Pakistan,LHE,31.5216007232666,74.40360260009766
OPRN,Benazir Bhutto International Airport,Islamabad,Pakistan,,33.616699,73.099197
ORMM,Basrah International Airport,Basrah,Iraq,BSR,30.54910087585449,47.66210174560547
OSDI,Damascus International Airport,Damascus,Syria,DAM,33.4114990234375,36.51559829711914
OSLK,Bassel Al-Assad International Airport,Latakia,Syria,LTK,35.401100158691406,35.948699951171875
OTBD,Doha International Airport,Doha,Qatar,DIA,25.261101,51.565102
RCSS,Taipei Songshan Airport,Taipei,Taiwan,TSA,25.06940078735352,121.552001953125
RCTP,Taiwan Taoyuan International Airport,Taipei,Taiwan,TPE,25.0777,121.233002
RJAA,Narita International Airport,Tokyo,Japan,NRT,35.7647018433,140.386001587
RJCC,New Chitose Airport,Sapporo,Japan,CTS,42.77519989013672,141.69200134277344
RJFF,Fukuoka Airport,Fukuoka,Japan,FUK,33.585899353027344,130.4510040283203
RJNK,Komatsu Airport,Kanazawa,Japan,KMQ,36.39459991455078,136.40699768066406
RJTT,Tokyo Haneda International Airport,Tokyo,Japan,HND,35.552299,139.779999
RKPK,Gimhae International Airport,Busan,South Korea,PUS,35.1795005798,128.93800354
RKSS,Gimpo International Airport,Seoul,South Korea,GMP,37.5583,126.791
RPLL,Ninoy Aquino International Airport,Manila,Philippines,MNL,14.5086,121.019997
SAAR,Islas Malvinas Airport,Rosario,Argentina,ROS,-32.9036,-60.785
SABE,Jorge Newbery Airpark,Buenos Aires,Argentina,AEP,-34.5592,-58.4156
SBBE,Val de Cans/Júlio Cezar Ribeiro International Airport,Belem,Brazil,BEL,-1.3792500495900002,-48.4762992859
SBBR,Presidente Juscelino Kubistschek International Airport,Brasilia,Brazil,BSB,-15.86916732788086,-47.92083358764648
SBCF,Tancredo Neves International Airport,Belo Horizonte,Brazil,CNF,-19.62444305419922,-43.97194290161133
SBCT,Afonso Pena Airport,Curitiba,Brazil,CWB,-25.5284996033,-49.1758003235
SBFZ,Pinto Martins International Airport,Fortaleza,Brazil,FOR,-3.776279926300049,-38.53260040283203
SBGL,Rio Galeão – Tom Jobim International Airport,Rio De Janeiro,Brazil,GIG,-22.8099994659,-43.2505569458
SBGR,Guarulhos - Governador André Franco Montoro International Airport,Sao Paulo,Brazil,GRU,-23.435556411743164,-46.47305679321289
SBKP,Viracopos International Airport,Campinas,Brazil,VCP,-23.0074005127,-47.1344985962
SBSG,Governador Aluízio Alves International Airport,Natal,Brazil,NAT,-5.768056,-35.376111
SBPA,Salgado Filho Airport,Porto Alegre,Brazil,POA,-29.994400024414062,-51.1713981628418
SBPL,Senador Nilo Coelho Airport,Petrolina,Brazil,PNZ,-9.362409591674805,-40.56909942626953
SBRF,Guararapes - Gilberto Freyre International Airport,Recife,Brazil,REC,-8.126489639282227,-34.92359924316406
SBSV,Deputado Luiz Eduardo Magalhães International Airport,Salvador,Brazil,SSA,-12.9086112976,-38.3224983215
SCEL,Comodoro Arturo Merino Benítez International Airport,Santiago,Chile,SCL,-33.393001556396484,-70.78579711914062
SEGU,José Joaquín de Olmedo International Airport,Guayaquil,Ecuador,GYE,-2.15741991997,-79.88359832760001
SEQM,Mariscal Sucre International Airport,Quito,Ecuador,UIO,-0.129166666667,-78.3575
SGAS,Silvio Pettirossi International Airport,Asuncion,Paraguay,ASU,-25.239999771118164,-57.52000045776367
SKBO,El Dorado International Airport,Bogota,Colombia,BOG,4.70159,-74.1469
SKCG,Rafael Nuñez International Airport,Cartagena,Colombia,CTG,10.4424,-75.513
SKCL,Alfonso Bonilla Aragon International Airport,Cali,Colombia,CLO,3.54322,-76.3816
SKRG,Jose Maria Córdova International Airport,Rio Negro,Colombia,MDE,6.16454,-75.4231
SLCB,Jorge Wilsterman International Airport,Cochabamba,Bolivia,CBB,-17.421100616455078,-66.1771011352539
SLLP,El Alto International Airport,La Paz,Bolivia,LPB,-16.5132999420166,-68.19229888916016
SLVR,Viru Viru International Airport,Santa Cruz,Bolivia,VVI,-17.6448,-63.135399
SMJP,Johan Adolf Pengel International Airport,Zandery,Suriname,PBM,5.4528298378,-55.1878013611
SOCA,Cayenne-Rochambeau Airport,Cayenne,French Guiana,CAY,4.819809913639999,-52.3604011536
SUDU,Santa Bernardina International Airport,Durazno,Uruguay,DZO,-33.3588981628418,-56.49919891357422
SUMU,Carrasco International /General C L Berisso Airport,Montevideo,Uruguay,MVD,-34.838402,-56.0308
SVMI,Simón Bolívar International Airport,Caracas,Venezuela,CCS,10.601194,-66.991222
TAPA,V.C. Bird International Airport,Antigua,Antigua and Barbuda,ANU,17.1367,-61.792702
TBPB,Sir Grantley Adams International Airport,Bridgetown,Barbados,BGI,13.0746002197,-59.4925003052
TFFF,Martinique Aimé Césaire International Airport,Fort-de-france,Martinique,FDF,14.590999603271484,-61.00320053100586
TFFR,Pointe-à-Pitre Le Raizet,Pointe-a-pitre,Guadeloupe,PTP,16.265301,-61.531799
TGPY,Point Salines International Airport,Point Salines,Grenada,GND,12.004199981689451,-61.78620147705078
TIST,Cyril E. King Airport,St. Thomas,Virgin Islands,STT,18.337299346923828,-64.97339630126953
TISX,Henry E Rohlsen Airport,St. Croix Island,Virgin Islands,STX,17.701900482177734,-64.79859924316406
TJBQ,Rafael Hernandez Airport,Aguadilla,Puerto Rico,BQN,18.49489974975586,-67.12940216064453
TJSJ,Luis Munoz Marin International Airport,San Juan,Puerto Rico,SJU,18.4393997192,-66.0018005371
TLPL,Hewanorra International Airport,Hewandorra,Saint Lucia,UVF,13.7332,-60.952599
TNCA,Queen Beatrix International Airport,Oranjestad,Aruba,AUA,12.5014,-70.015198
TNCB,Flamingo International Airport,Kralendijk,Netherlands Antilles,BON,12.130999565124512,-68.26850128173828
TNCC,Hato International Airport,Willemstad,Netherlands Antilles,CUR,12.1889,-68.959801
TNCM,Princess Juliana International Airport,Philipsburg,Netherlands Antilles,SXM,18.0410003662,-63.1088981628
TQPF,Clayton J Lloyd International Airport,The Valley,Anguilla,AXA,18.2048,-63.055099
TTCP,Tobago-Crown Point Airport,Scarborough,Trinidad and Tobago,TAB,11.149700164794922,-60.83219909667969
TTPP,Piarco International Airport,Port-of-spain,Trinidad and Tobago,POS,10.595399856567385,-61.33720016479492
TUPJ,Terrance B. Lettsome International Airport,Tortola,British Virgin Islands,EIS,18.444799423217773,-64.54299926757812
UAAA,Almaty Airport,Alma-ata,Kazakhstan,ALA,43.35210037231445,77.04049682617188
UACC,Astana International Airport,Tselinograd,Kazakhstan,TSE,51.02220153808594,71.46690368652344
UADD,Taraz Airport,Dzhambul,Kazakhstan,DMB,42.85359954833984,71.30359649658203
UAII,Shymkent Airport,Chimkent,Kazakhstan,CIT,42.364200592041016,69.47889709472656
UARR,Uralsk Airport,Uralsk,Kazakhstan,URA,51.15079879760742,51.54309844970703
UASP,Pavlodar Airport,Pavlodar,Kazakhstan,PWQ,52.19499969482422,77.07389831542969
UATT,Aktobe Airport,Aktyubinsk,Kazakhstan,AKX,50.2458,57.206699
UBBB,Heydar Aliyev International Airport,Baku,Azerbaijan,GYD,40.46749877929688,50.04669952392578
UHHH,Khabarovsk-Novy Airport,Khabarovsk,Russia,KHV,48.52799987793,135.18800354004
UHWW,Vladivostok International Airport,Vladivostok,Russia,VVO,43.39899826049805,132.1479949951172
UIBB,Bratsk Airport,Bratsk,Russia,BTK,56.370601654052734,101.697998046875
UIII,Irkutsk Airport,Irkutsk,Russia,IKT,52.268001556396,104.38899993896
UKBB,Boryspil International Airport,Kiev,Ukraine,KBP,50.345001220703125,30.894699096679688
UKDD,Dnipropetrovsk International Airport,Dnepropetrovsk,Ukraine,DNK,48.357200622558594,35.10060119628906
UKKK,Kiev Zhuliany International Airport,Kiev,Ukraine,IEV,50.40194,30.45194
UKLL,Lviv International Airport,Lvov,Ukraine,LWO,49.8125,23.956100463867188
UKOO,Odessa International Airport,Odessa,Ukraine,ODS,46.42679977416992,30.67650032043457
ULLI,Pulkovo Airport,St. Petersburg,Russia,LED,59.80030059814453,30.262500762939453
ULMM,Murmansk Airport,Murmansk,Russia,MMK,68.78170013427734,32.75080108642578
UMGG,Gomel Airport,Gomel,Belarus,GME,52.527000427246094,31.016700744628903
UMII,Vitebsk Vostochny Airport,Vitebsk,Belarus,VTB,55.126499176025,30.349599838257
UMKK,Khrabrovo Airport,Kaliningrad,Russia,KGD,54.88999938964844,20.59259986877441
UMMM,Minsk 1 Airport,Minsk,Belarus,MHP,53.86449813842773,27.53969955444336
UMMS,Minsk National Airport,Minsk 2,Belarus,MSQ,53.882499694824,28.030700683594
UNBB,Barnaul Airport,Barnaul,Russia,BAX,53.363800048828125,83.53849792480469
UNEE,Kemerovo Airport,Kemorovo,Russia,KEJ,55.27009963989258,86.1072006225586
UNOO,Omsk Central Airport,Omsk,Russia,OMS,54.96699905395508,73.31050109863281
URKK,Krasnodar Pashkovsky International Airport,Krasnodar,Russia,KRR,45.034698486328,39.170501708984
URML,Uytash Airport,Makhachkala,Russia,MCX,42.81679916381836,47.65230178833008
URMM,Mineralnyye Vody Airport,Mineralnye Vody,Russia,MRV,44.22510147094727,43.08190155029297
URMT,Stavropol Shpakovskoye Airport,Stavropol,Russia,STW,45.10919952392578,42.11280059814453
URSS,Sochi International Airport,Sochi,Russia,AER,43.449902,39.9566
URWA,Astrakhan Airport,Astrakhan,Russia,ASF,46.2832984924,48.0063018799
URWW,Volgograd International Airport,Volgograd,Russia,VOG,48.782501220703125,44.34550094604492
USCC,Chelyabinsk Balandino Airport,Chelyabinsk,Russia,CEK,55.305801,61.5033
USCM,Magnitogorsk International Airport,Magnetiogorsk,Russia,MQF,53.39310073852539,58.75569915771485
USNN,Nizhnevartovsk Airport,Nizhnevartovsk,Russia,NJC,60.94929885864258,76.48359680175781
USPP,Bolshoye Savino Airport,Perm,Russia,PEE,57.914501190186,56.021198272705
USRR,Surgut Airport,Surgut,Russia,SGC,61.34370040893555,73.40180206298828
USSS,Koltsovo Airport,Yekaterinburg,Russia,SVX,56.743099212646,60.802700042725
UTAA,Ashgabat International Airport,Ashkhabad,Turkmenistan,ASB,37.986801,58.361
UTAK,Turkmenbashi Airport,Krasnovodsk,Turkmenistan,KRW,40.063301,53.007198
UTDD,Dushanbe Airport,Dushanbe,Tajikistan,DYU,38.5433006287,68.8249969482
UTSB,Bukhara Airport,Bukhara,Uzbekistan,BHK,39.775001525878906,64.4832992553711
UTTT,Tashkent International Airport,Tashkent,Uzbekistan,TAS,41.257900238,69.2811965942
UUBP,Bryansk Airport,Bryansk,Russia,BZK,53.214199,34.176399
UUEE,Sheremetyevo International Airport,Moscow,Russia,SVO,55.972599,37.4146
UUOO,Voronezh International Airport,Voronezh,Russia,VOZ,51.81420135498047,39.22959899902344
UUWW,Vnukovo International Airport,Moscow,Russia,VKO,55.5914993286,37.2615013123
UUYY,Syktyvkar Airport,Syktyvkar,Russia,SCW,61.64699935913086,50.84510040283203
UWKD,Kazan International Airport,Kazan,Russia,KZN,55.606201171875,49.278701782227
UWOO,Orenburg Central Airport,Orenburg,Russia,REN,51.79579925537109,55.45669937133789
UWUU,Ufa International Airport,Ufa,Russia,UFA,54.557498931885,55.874401092529
UWWW,Kurumoch International Airport,Samara,Russia,KUF,53.504901885986,50.16429901123
VAAH,Sardar Vallabhbhai Patel International Airport,Ahmedabad,India,AMD,23.0771999359,72.63469696039999
VABB,Chhatrapati Shivaji International Airport,Mumbai,India,BOM,19.0886993408,72.8678970337
VAPO,Pune Airport,Pune,India,PNQ,18.58209991455078,73.9197006225586
VCBI,Bandaranaike International Colombo Airport,Colombo,Sri Lanka,CMB,7.180759906768799,79.88410186767578
VECC,Netaji Subhash Chandra Bose International Airport,Kolkata,India,CCU,22.654699325561523,88.44670104980469
VGEG,Shah Amanat International Airport,Chittagong,Bangladesh,CGP,22.24959945678711,91.81330108642578
VGSY,Osmany International Airport,Sylhet Osmani,Bangladesh,ZYL,24.96319961547852,91.8667984008789
VHHH,Hong Kong International Airport,Hong Kong,Hong Kong,HKG,22.308901,113.915001
VIAR,Sri Guru Ram Dass Jee International Airport,Amritsar,India,ATQ,31.7096004486,74.7973022461
VIDP,Indira Gandhi International Airport,Delhi,India,DEL,28.5665,77.103104
VIGR,Gwalior Airport,Gwalior,India,GWL,26.29330062866211,78.22779846191406
VIJP,Jaipur International Airport,Jaipur,India,JAI,26.8242,75.812202
VILK,Chaudhary Charan Singh International Airport,Lucknow,India,LKO,26.7605991364,80.8892974854
VMMC,Macau International Airport,Macau,Macau,MFM,22.149599,113.592003
VNKT,Tribhuvan International Airport,Kathmandu,Nepal,KTM,27.6966,85.3591
VOBL,Kempegowda International Airport,Bangalore,India,BLR,13.1979,77.706299
VOCI,Cochin International Airport,Kochi,India,COK,10.152,76.401901
VOMM,Chennai International Airport,Madras,India,MAA,12.990005493164062,80.16929626464844
VRMM,Malé International Airport,Male,Maldives,MLE,4.191830158233643,73.52909851074219
VTBD,Don Mueang International Airport,Bangkok,Thailand,DMK,13.9125995636,100.607002258
VTBU,U-Tapao International Airport,Pattaya,Thailand,UTP,12.67990016937256,101.00499725341795
VTSG,Krabi Airport,Krabi,Thailand,KBV,8.09912014008,98.9861984253
VTSM,Samui Airport,Ko Samui,Thailand,USM,9.547789573669998,100.06199646
VTSP,Phuket International Airport,Phuket,Thailand,HKT,8.1132,98.316902
VVNB,Noi Bai International Airport,Hanoi,Vietnam,HAN,21.221200942993164,105.80699920654295
VVPQ,Phu Quoc International Airport,Phuquoc,Vietnam,PQC,10.1698,103.9931
VVTS,Tan Son Nhat International Airport,Ho Chi Minh City,Vietnam,SGN,10.8187999725,106.652000427
WIII,Soekarno-Hatta International Airport,Jakarta,Indonesia,CGK,-6.1255698204,106.65599823
WMKJ,Senai International Airport,Johor Bahru,Malaysia,JHB,1.64131,103.669998
WMKK,Kuala Lumpur International Airport,Kuala Lumpur,Malaysia,KUL,2.745579957962,101.70999908447
WMKP,Penang International Airport,Penang,Malaysia,PEN,5.297140121459961,100.2770004272461
WSSL,Seletar Airport,Singapore,Singapore,XSP,1.416949987411499,103.86799621582033
WSSS,Singapore Changi Airport,Singapore,Singapore,SIN,1.35019,103.994003
ZBAA,Beijing Capital International Airport,Beijing,China,PEK,40.0801010131836,116.58499908447266
ZBTJ,Tianjin Binhai International Airport,Tianjin,China,TSN,39.1244010925,117.346000671
ZGGG,Guangzhou Baiyun International Airport,Guangzhou,China,CAN,23.39240074157715,113.29900360107422
ZGHA,Changsha Huanghua International Airport,Changcha,China,CSX,28.1891994476,113.220001221
ZGKL,Guilin Liangjiang International Airport,Guilin,China,KWL,25.21809959411621,110.03900146484376
ZGSZ,Shenzhen Bao'an International Airport,Shenzhen,China,SZX,22.639299392700195,113.81099700927734
ZHCC,Zhengzhou Xinzheng International Airport,Zhengzhou,China,CGO,34.519699096699995,113.841003418
ZHHH,Wuhan Tianhe International Airport,Wuhan,China,WUH,30.7838,114.208
ZLXY,Xi'an Xianyang International Airport,Xi'an,China,XIY,34.447102,108.751999
ZMUB,Chinggis Khaan International Airport,Ulan Bator,Mongolia,ULN,47.843102,106.766998
ZPPP,Kunming Changshui International Airport,Kunming,China,KMG,25.1019444,102.9291667
ZSAM,Xiamen Gaoqi International Airport,Xiamen,China,XMN,24.54400062561035,118.12799835205078
ZSFZ,Fuzhou Changle International Airport,Fuzhou,China,FOC,25.93510055541992,119.66300201416016
ZSHC,Hangzhou Xiaoshan International Airport,Hangzhou,China,HGH,30.22949981689453,120.43399810791016
ZSNB,Ningbo Lishe International Airport,Ninbo,China,NGB,29.82670021057129,121.46199798583984
ZSNJ,Nanjing Lukou Airport,Nanjing,China,NKG,31.742000579833984,118.86199951171876
ZSQD,Liuting Airport,Qingdao,China,TAO,36.2661018372,120.374000549
ZSSS,Shanghai Hongqiao International Airport,Shanghai,China,SHA,31.197900772094727,121.33599853515624
ZUCK,Chongqing Jiangbei International Airport,Chongqing,China,CKG,29.719200134277344,106.64199829101562
ZUGY,Longdongbao Airport,Guiyang,China,KWE,26.53849983215332,106.8010025024414
ZUUU,Chengdu Shuangliu International Airport,Chengdu,China,CTU,30.578500747680664,103.9469985961914
ZWWW,Ürümqi Diwopu International Airport,Urumqi,China,URC,43.90710067749024,87.47419738769531
ZYTL,Zhoushuizi Airport,Dalian,China,DLC,38.9656982421875,121.53900146484376
ZSPD,Shanghai Pudong International Airport,Shanghai,China,PVG,31.143400192260746,121.80500030517578
WMSA,Sultan Abdul Aziz Shah International Airport,Kuala Lumpur,Malaysia,SZB,3.130579948425293,101.54900360107422
HEBA,Borg El Arab International Airport,Alexandria,Egypt,HBE,30.917699813842773,29.696399688720703
KORL,Orlando Executive Airport,Orlando,United States,ORL,28.5455,-81.332901
KBED,Laurence G Hanscom Field,Bedford,United States,BED,42.47000122,-71.28900146
KSVN,Hunter Army Air Field,Hunter Aaf,United States,SVN,32.00999832,-81.14569855
KTTN,Trenton Mercer Airport,Trenton,United States,TTN,40.27669906616211,-74.8134994506836
KBOS,General Edward Lawrence Logan International Airport,Boston,United States,BOS,42.36429977,-71.00520325
KSUU,Travis Air Force Base,Fairfield,United States,SUU,38.262699127197,-121.92700195312
KRME,Griffiss International Airport,Rome,United States,RME,43.23379898,-75.40699768
KBFM,Mobile Downtown Airport,Mobile,United States,BFM,30.626800537100003,-88.06809997559999
KOAK,Metropolitan Oakland International Airport,Oakland,United States,OAK,37.721298,-122.221001
KOMA,Eppley Airfield,Omaha,United States,OMA,41.3032,-95.894096
KICT,Wichita Eisenhower National Airport,Wichita,United States,ICT,37.649899,-97.433098
KMCI,Kansas City International Airport,Kansas City,United States,MCI,39.2976,-94.713898
KPHX,Phoenix Sky Harbor International Airport,Phoenix,United States,PHX,33.43429946899414,-112.01200103759766
KBGR,Bangor International Airport,Bangor,United States,BGR,44.80739974975586,-68.8281021118164
KSFO,San Francisco International Airport,San Francisco,United States,SFO,37.61899948120117,-122.375
KMEM,Memphis International Airport,Memphis,United States,MEM,35.04240036010742,-89.97669982910156
KPOB,Pope Field,Fort Bragg,United States,POB,35.1708984375,-79.014503479004
KLAX,Los Angeles International Airport,Los Angeles,United States,LAX,33.94250107,-118.4079971
KCLE,Cleveland Hopkins International Airport,Cleveland,United States,CLE,41.4117012024,-81.8498001099
KDOV,Dover Air Force Base,Dover,United States,DOV,39.12950134,-75.46600342
KCVG,Cincinnati Northern Kentucky International Airport,Cincinnati,United States,CVG,39.0488014221,-84.6678009033
KEWR,Newark Liberty International Airport,Newark,United States,EWR,40.692501068115234,-74.168701171875
KMOT,Minot International Airport,Minot,United States,MOT,48.2593994140625,-101.27999877929688
KDAL,Dallas Love Field,Dallas,United States,DAL,32.847099,-96.851799
KHRT,Hurlburt Field,Mary Esther,United States,,30.42779922485352,-86.68930053710938
KACK,Nantucket Memorial Airport,Nantucket,United States,ACK,41.25310135,-70.06020355
KHOP,Campbell AAF (Fort Campbell) Air Field,Hopkinsville,United States,HOP,36.668598175,-87.49620056150002
KTIK,Tinker Air Force Base,Oklahoma City,United States,TIK,35.414699554443,-97.386596679688
KPQI,Northern Maine Regional Airport at Presque Isle,Presque Isle,United States,PQI,46.68899918,-68.0447998
KFLL,Fort Lauderdale Hollywood International Airport,Fort Lauderdale,United States,FLL,26.072599,-80.152702
KINL,Falls International Airport,International Falls,United States,INL,48.566200256347656,-93.4030990600586
KSLC,Salt Lake City International Airport,Salt Lake City,United States,SLC,40.78839874267578,-111.97799682617188
KLAN,Capital City Airport,Lansing,United States,LAN,42.77870178222656,-84.58740234375
KIAH,George Bush Intercontinental Houston Airport,Houston,United States,IAH,29.984399795532227,-95.34140014648438
KADW,Joint Base Andrews,Camp Springs,United States,ADW,38.810799,-76.866997
KINT,Smith Reynolds Airport,Winston-salem,United States,INT,36.13370132446289,-80.22200012207031
KVCV,Southern California Logistics Airport,Victorville,United States,VCV,34.597499847399995,-117.383003235
KGTB,Wheeler Sack Army Air Field,Fort Drum,United States,,44.05559921,-75.71949768
KCAE,Columbia Metropolitan Airport,Columbia,United States,CAE,33.93880081176758,-81.11949920654297
KRDR,Grand Forks Air Force Base,Red River,United States,RDR,47.961101532,-97.4011993408
KHOU,William P Hobby Airport,Houston,United States,HOU,29.64539909,-95.27890015
KPIT,Pittsburgh International Airport,Pittsburgh,United States,PIT,40.49150085,-80.23290253
KNUW,Whidbey Island Naval Air Station (Ault Field),Whidbey Island,United States,NUW,48.351799,-122.655998
KMIA,Miami International Airport,Miami,United States,MIA,25.79319953918457,-80.29060363769531
KSEA,Seattle Tacoma International Airport,Seattle,United States,SEA,47.449001,-122.308998
KJAN,Jackson-Medgar Wiley Evers International Airport,Jackson,United States,JAN,32.3111991882,-90.0758972168
KIND,Indianapolis International Airport,Indianapolis,United States,IND,39.7173,-86.294403
KSZL,Whiteman Air Force Base,Knobnoster,United States,SZL,38.73030090332,-93.547897338867
KHPN,Westchester County Airport,White Plains,United States,HPN,41.06700134277344,-73.70760345458984
KFOK,Francis S Gabreski Airport,West Hampton Beach,United States,FOK,40.8437004089,-72.6317977905
KNZY,North Island Naval Air Station-Halsey Field,San Diego,United States,NZY,32.69919968,-117.2149963
KBIF,Biggs Army Air Field (Fort Bliss),El Paso,United States,BIF,31.84950066,-106.3799973
KDLH,Duluth International Airport,Duluth,United States,DLH,46.8420982361,-92.1936035156
KRIC,Richmond International Airport,Richmond,United States,RIC,37.50519943237305,-77.3197021484375
KORF,Norfolk International Airport,Norfolk,United States,ORF,36.89459991455078,-76.20120239257812
KSAV,Savannah Hilton Head International Airport,Savannah,United States,SAV,32.12760162,-81.20210266
KHIF,Hill Air Force Base,Ogden,United States,HIF,41.12403,-111.973086
KCXO,Conroe-North Houston Regional Airport,Conroe,United States,CXO,30.351801,-95.414497
KSAT,San Antonio International Airport,San Antonio,United States,SAT,29.533700942993164,-98.46980285644533
KROC,Greater Rochester International Airport,Rochester,United States,ROC,43.118900299072266,-77.67240142822266
KCOF,Patrick Air Force Base,Coco Beach,United States,COF,28.2348995209,-80.6100997925
KTEB,Teterboro Airport,Teterboro,United States,TEB,40.85010147089999,-74.060798645
KRDU,Raleigh Durham International Airport,Raleigh-durham,United States,RDU,35.87760162353516,-78.7874984741211
KTUS,Tucson International Airport,Tucson,United States,TUS,32.1161003112793,-110.94100189208984
KMIB,Minot Air Force Base,Minot,United States,MIB,48.4156,-101.358002
KGSB,Seymour Johnson Air Force Base,Goldsboro,United States,GSB,35.33940125,-77.96060181
KPVD,Theodore Francis Green State Airport,Providence,United States,PVD,41.732601,-71.420403
KBUR,Bob Hope Airport,Burbank,United States,BUR,34.20069885253906,-118.35900115966795
KDTW,Detroit Metropolitan Wayne County Airport,Detroit,United States,DTW,42.212398529052734,-83.35340118408203
KTPA,Tampa International Airport,Tampa,United States,TPA,27.975500106811523,-82.533203125
PAEI,Eielson Air Force Base,Fairbanks,United States,EIL,64.66570282,-147.102005
KWRI,Mc Guire Air Force Base,Wrightstown,United States,WRI,40.0155983,-74.59169769
KNKT,Cherry Point MCAS /Cunningham Field/,Cherry Point,United States,,34.90090179,-76.88069916
KSWF,Stewart International Airport,Newburgh,United States,SWF,41.50410079956055,-74.10479736328125
KMGE,Dobbins Air Reserve Base,Marietta,United States,MGE,33.91540146,-84.51629639
KPAM,Tyndall Air Force Base,Panama City,United States,PAM,30.0695991516,-85.57540130619999
KDFW,Dallas Fort Worth International Airport,Dallas-Fort Worth,United States,DFW,32.896801,-97.038002
KTCM,McChord Air Force Base,Tacoma,United States,TCM,47.1376991272,-122.475997925
KAUS,Austin Bergstrom International Airport,Austin,United States,AUS,30.194499969482425,-97.6698989868164
KLCK,Rickenbacker International Airport,Columbus,United States,LCK,39.813801,-82.927803
KSTL,St Louis Lambert International Airport,St. Louis,United States,STL,38.748697,-90.370003
KLUK,Cincinnati Municipal Airport Lunken Field,Cincinnati,United States,LUK,39.10329819,-84.41860199
KATL,Hartsfield Jackson Atlanta International Airport,Atlanta,United States,ATL,33.6367,-84.428101
KGRR,Gerald R. Ford International Airport,Grand Rapids,United States,GRR,42.88079834,-85.52279663
KBNA,Nashville International Airport,Nashville,United States,BNA,36.1245002746582,-86.6781997680664
PAED,Elmendorf Air Force Base,Anchorage,United States,EDF,61.2509994506836,-149.8070068359375
KLGA,La Guardia Airport,New York,United States,LGA,40.77719879,-73.87259674
KDPA,Dupage Airport,West Chicago,United States,DPA,41.90779877,-88.24859619
KNIP,Jacksonville Naval Air Station (Towers Field),Jacksonville,United States,NIP,30.2358,-81.680603
KBTV,Burlington International Airport,Burlington,United States,BTV,44.4719009399,-73.15329742429999
KJAX,Jacksonville International Airport,Jacksonville,United States,JAX,30.49410057067871,-81.68789672851562
KIAD,Washington Dulles International Airport,Washington,United States,IAD,38.94449997,-77.45580292
KPDX,Portland International Airport,Portland,United States,PDX,45.58869934,-122.5979996
KPBI,Palm Beach International Airport,West Palm Beach,United States,PBI,26.68320083618164,-80.09559631347656
KFTW,Fort Worth Meacham International Airport,Fort Worth,United States,FTW,32.819801,-97.362396
KBFI,Boeing Field King County International Airport,Seattle,United States,BFI,47.52999877929688,-122.302001953125
KSAN,San Diego International Airport,San Diego,United States,SAN,32.7336006165,-117.190002441
KSSC,Shaw Air Force Base,Sumter,United States,SSC,33.97269821,-80.47059631
KSYR,Syracuse Hancock International Airport,Syracuse,United States,SYR,43.11119842529297,-76.1063003540039
KMDW,Chicago Midway International Airport,Chicago,United States,MDW,41.785999,-87.752403
KSJC,Norman Y. Mineta San Jose International Airport,San Jose,United States,SJC,37.362598,-121.929001
KPNE,Northeast Philadelphia Airport,Philadelphia,United States,PNE,40.081902,-75.010597
KDEN,Denver International Airport,Denver,United States,DEN,39.861698150635,-104.672996521
KPHL,Philadelphia International Airport,Philadelphia,United States,PHL,39.87189865112305,-75.24109649658203
KCMH,John Glenn Columbus International Airport,Columbus,United States,CMH,39.998001,-82.891899
KNBG,New Orleans NAS JRB/Alvin Callender Field,New Orleans,United States,NBG,29.82530022,-90.03500366
PANC,Ted Stevens Anchorage International Airport,Anchorage,United States,ANC,61.17440032958984,-149.99600219726562
KGRK,Robert Gray  Army Air Field Airport,Killeen,United States,GRK,31.067199707,-97.8289031982
KOPF,Opa-locka Executive Airport,Miami,United States,OPF,25.907,-80.278397
KRSW,Southwest Florida International Airport,Fort Myers,United States,RSW,26.53619956970215,-81.75520324707031
KJFK,John F Kennedy International Airport,New York,United States,JFK,40.63980103,-73.77890015
KSCK,Stockton Metropolitan Airport,Stockton,United States,SCK,37.894199371338,-121.2379989624
KCHS,Charleston Air Force Base-International Airport,Charleston,United States,CHS,32.89860153,-80.04049683
KYIP,Willow Run Airport,Detroit,United States,YIP,42.23789978,-83.53040314
KBHM,Birmingham-Shuttlesworth International Airport,Birmingham,United States,BHM,33.56290054,-86.75350189
KLSV,Nellis Air Force Base,Las Vegas,United States,LSV,36.2361984253,-115.033996582
KRIV,March ARB Airport,Riverside,United States,RIV,33.880699,-117.259003
KCOS,City of Colorado Springs Municipal Airport,Colorado Springs,United States,COS,38.805801,-104.700996
KBUF,Buffalo Niagara International Airport,Buffalo,United States,BUF,42.94049835,-78.73220062
KPAE,Snohomish County (Paine Field) Airport,Everett,United States,PAE,47.90629959,-122.2819977
KBDL,Bradley International Airport,Windsor Locks,United States,BDL,41.9388999939,-72.68319702149999
KNGU,Norfolk Naval Station (Chambers Field),Norfolk,United States,NGU,36.937599,-76.289299
KORD,Chicago O'Hare International Airport,Chicago,United States,ORD,41.9786,-87.9048
KBCT,Boca Raton Airport,Boca Raton,United States,BCT,26.3784999847,-80.1076965332
PAFA,Fairbanks International Airport,Fairbanks,United States,FAI,64.81510162,-147.8560028
KOFF,Offutt Air Force Base,Omaha,United States,OFF,41.118301391602,-95.912498474121
KPSP,Palm Springs International Airport,Palm Springs,United States,PSP,33.8297004699707,-116.50700378417967
KAMA,Rick Husband Amarillo International Airport,Amarillo,United States,AMA,35.219398,-101.706001
KBAD,Barksdale Air Force Base,Shreveport,United States,BAD,32.5018005371,-93.6626968384
KILM,Wilmington International Airport,Wilmington,United States,ILM,34.270599365234375,-77.90260314941406
KBWI,Baltimore/Washington International Thurgood Marshall Airport,Baltimore,United States,BWI,39.1754,-76.668297
KAEX,Alexandria International Airport,Alexandria,United States,AEX,31.32740020751953,-92.54979705810548
KTUL,Tulsa International Airport,Tulsa,United States,TUL,36.19839859008789,-95.88809967041016
KISP,Long Island Mac Arthur Airport,Islip,United States,ISP,40.79520035,-73.10019684
KMSP,Minneapolis-St Paul International/Wold-Chamberlain Airport,Minneapolis,United States,MSP,44.882,-93.221802
KILG,New Castle Airport,Wilmington,United States,ILG,39.67869949,-75.60649872
KMSY,Louis Armstrong New Orleans International Airport,New Orleans,United States,MSY,29.99340057373047,-90.25800323486328
KPWM,Portland International Jetport Airport,Portland,United States,PWM,43.64619827,-70.30930328
KOKC,Will Rogers World Airport,Oklahoma City,United States,OKC,35.39310073852539,-97.60070037841795
KALB,Albany International Airport,Albany,United States,ALB,42.74829864501953,-73.80169677734375
KLFI,Langley Air Force Base,Hampton,United States,LFI,37.082901001,-76.360496521
KCPR,Casper-Natrona County International Airport,Casper,United States,CPR,42.908001,-106.463997
KVPS,Destin-Ft Walton Beach Airport,Valparaiso,United States,VPS,30.4832,-86.525398
KCLT,Charlotte Douglas International Airport,Charlotte,United States,CLT,35.2140007019043,-80.94309997558594
KLAS,McCarran International Airport,Las Vegas,United States,LAS,36.08010101,-115.1520004
KMCO,Orlando International Airport,Orlando,United States,MCO,28.429399490356445,-81.30899810791016
KGTF,Great Falls International Airport,Great Falls,United States,GTF,47.48199844,-111.3710022
VTBS,Suvarnabhumi Airport,Bangkok,Thailand,BKK,13.681099891662598,100.74700164794922
RKSI,Incheon International Airport,Seoul,South Korea,ICN,37.46910095214844,126.45099639892578
WADD,Ngurah Rai (Bali) International Airport,Denpasar,Indonesia,DPS,-8.7481698989868,115.16699981689
LGAV,Eleftherios Venizelos International Airport,Athens,Greece,ATH,37.9364013672,23.9444999695
RJGG,Chubu Centrair International Airport,Nagoya,Japan,NGO,34.8583984375,136.80499267578125
EVLA,Liepāja International Airport,Liepaja,Latvia,LPX,56.51750183105469,21.096900939941406
EVRA,Riga International Airport,Riga,Latvia,RIX,56.92359924316406,23.971099853515625
EYSA,Šiauliai International Airport,Siauliai,Lithuania,SQQ,55.89390182495117,23.395000457763672
EYKA,Kaunas International Airport,Kaunas,Lithuania,KUN,54.96390151977539,24.084800720214844
EYPA,Palanga International Airport,Palanga,Lithuania,PLQ,55.97320175170898,21.093900680541992
EYVI,Vilnius International Airport,Vilnius,Lithuania,VNO,54.634102,25.285801
UDYE,Erebuni Airport,Yerevan,Armenia,,40.1221008301,44.465000152600005
UDYZ,Zvartnots International Airport,Yerevan,Armenia,EVN,40.1473007202,44.3959007263
UDSG,Gyumri Shirak Airport,Gyumri,Armenia,LWN,40.7504005432,43.859298706100006
HHAS,Asmara International Airport,Asmara,Eritrea,ASM,15.291899681091309,38.91070175170898
HHMS,Massawa International Airport,Massawa,Eritrea,MSW,15.670000076293944,39.37009811401367
UGSB,Batumi International Airport,Batumi,Georgia,BUS,41.6102981567,41.5997009277
UGKO,Kopitnari Airport,Kutaisi,Georgia,KUT,42.176700592,42.4826011658
UGTB,Tbilisi International Airport,Tbilisi,Georgia,TBS,41.6692008972,44.95470047
OYAA,Aden International Airport,Aden,Yemen,ADE,12.829500198364258,45.02880096435547
EDJA,Memmingen Allgau Airport,Memmingen,Germany,FMM,47.9888000488,10.2395000458
LTAZ,Nevşehir Kapadokya Airport,Nevsehir,Turkey,NAV,38.7719,34.5345
SAEZ,Ministro Pistarini International Airport,Buenos Aires,Argentina,EZE,-34.8222,-58.5358
ORER,Erbil International Airport,Erbil,Iraq,EBL,36.23759841918945,43.96319961547852
RJBB,Kansai International Airport,Osaka,Japan,KIX,34.42729949951172,135.24400329589844
LEPA,Palma De Mallorca Airport,Palma de Mallorca,Spain,PMI,39.551700592,2.73881006241
KMHT,Manchester-Boston Regional Airport,Manchester NH,United States,MHT,42.932598,-71.435699
KSDF,Louisville International Standiford Field,Louisville,United States,SDF,38.1744,-85.736
KLEX,Blue Grass Airport,Lexington KY,United States,LEX,38.0364990234375,-84.60590362548828
KBZN,Gallatin Field,Bozeman,United States,BZN,45.77750015,-111.1529999
KRKD,Knox County Regional Airport,Rockland,United States,RKD,44.06010056,-69.09919739
KRFD,Chicago Rockford International Airport,Rockford,United States,RFD,42.19540023803711,-89.09719848632812
UUDD,Domodedovo International Airport,Moscow,Russia,DME,55.40879821777344,37.90629959106445
KGSP,Greenville Spartanburg International Airport,Greenville,United States,GSP,34.8956985474,-82.2189025879
KGPT,Gulfport Biloxi International Airport,Gulfport,United States,GPT,30.40730094909668,-89.07009887695312
KFWA,Fort Wayne International Airport,Fort Wayne,United States,FWA,40.97850037,-85.19509888
KLSE,La Crosse Municipal Airport,La Crosse,United States,LSE,43.879002,-91.256699
KRST,Rochester International Airport,Rochester,United States,RST,43.90829849243164,-92.5
HESH,Sharm El Sheikh International Airport,Sharm El Sheikh,Egypt,SSH,27.9773006439,34.3950004578
HKJK,Jomo Kenyatta International Airport,Nairobi,Kenya,NBO,-1.31923997402,36.9277992249
KSRQ,Sarasota Bradenton International Airport,Sarasota,United States,SRQ,27.39539909362793,-82.55439758300781
TXKF,L.F. Wade International International Airport,Bermuda,Bermuda,BDA,32.36399841308594,-64.67870330810547
KVNY,Van Nuys Airport,Van Nuys,United States,VNY,34.209800720215,-118.48999786377
UNNT,Tolmachevo Airport,Novosibirsk,Russia,OVB,55.012599945068,82.650703430176
LPMA,Madeira Airport,Funchal,Portugal,FNC,32.697899,-16.7745
FYWH,Hosea Kutako International Airport,Windhoek,Namibia,WDH,-22.4799,17.4709
ZSJN,Yaoqiang Airport,Jinan,China,TNA,36.857200622558594,117.21600341796876
USTR,Roshchino International Airport,Tyumen,Russia,TJM,57.1896018982,65.3243026733
KHSV,Huntsville International Carl T Jones Field,Huntsville,United States,HSV,34.637199401855,-86.775100708008
HDAM,Djibouti-Ambouli Airport,Djibouti,Djibouti,JIB,11.547300338745115,43.15950012207031
ORBI,Baghdad International Airport,Baghdad,Iraq,BGW,33.262500762900004,44.2346000671
ORAA,Al Asad Air Base,Al Asad,Iraq,IQA,33.7855987549,42.4412002563
ZYTX,Taoxian Airport,Shenyang,China,SHE,41.63980102539063,123.48300170898438
LDSB,Bol Airport,Brac,Croatia,BWK,43.28570175170898,16.67970085144043
FKYS,Yaoundé Nsimalen International Airport,Yaounde,Cameroon,NSI,3.722559928894043,11.553299903869627
GUCY,Conakry International Airport,Conakry,Guinea,CKY,9.57689,-13.612
EDSB,Karlsruhe Baden-Baden Airport,Karlsruhe/Baden-Baden,Germany,FKB,48.7793998718,8.08049964905
KSFB,Orlando Sanford International Airport,Sanford,United States,SFB,28.7775993347168,-81.23750305175781
LGPL,Astypalaia Airport,Astypalaia,Greece,JTY,36.5798988342,26.3757991791
LGIK,Ikaria Airport,Ikaria,Greece,JIK,37.6827011108,26.3470993042
LGKY,Kalymnos Airport,Kalymnos,Greece,JKL,36.9632987976,26.9405994415
LGML,Milos Airport,Milos,Greece,MLO,36.696899,24.4769
LGNX,Naxos Airport,Cyclades Islands,Greece,JNX,37.0811004639,25.3680992126
LGPA,Paros National Airport,Paros,Greece,PAS,37.020495,25.113195
LGKJ,Kastelorizo Airport,Kastelorizo,Greece,KZS,36.1417007446,29.576400756799995
HEMA,Marsa Alam International Airport,Marsa Alam,Egypt,RMF,25.557100296,34.5836982727
EDLV,Weeze Airport,Weeze,Germany,NRN,51.6024017334,6.14216995239
SBPS,Porto Seguro Airport,Porto Seguro,Brazil,BPS,-16.438601,-39.080898
KSGR,Sugar Land Regional Airport,Sugar Land,United States,SGR,29.622299194336,-95.65650177002
KAPA,Centennial Airport,Denver,United States,APA,39.57009888,-104.848999
KEGE,Eagle County Regional Airport,Vail,United States,EGE,39.64260101,-106.9179993
ENSK,Stokmarknes Skagen Airport,Stokmarknes,Norway,SKN,68.578826904297,15.033416748047
UWGG,Nizhny Novgorod Strigino International Airport,Nizhniy Novgorod,Russia,GOJ,56.230098724365,43.784000396729
KHYA,Barnstable Municipal Boardman Polando Field,Barnstable,United States,HYA,41.66930008,-70.28040314
KFAR,Hector International Airport,Fargo,United States,FAR,46.92070007324219,-96.81580352783205
UNTT,Bogashevo Airport,Tomsk,Russia,TOF,56.380298614502,85.208297729492
LIPY,Ancona Falconara Airport,Ancona,Italy,AOI,43.616299,13.3623
HETB,Taba International Airport,Taba,Egypt,TCP,29.5877990723,34.7780990601
LTFE,Milas Bodrum International Airport,Bodrum,Turkey,BJV,37.25059890749999,27.6643009186
DTKA,Tabarka 7 Novembre Airport,Tabarka,Tunisia,TBJ,36.97999954223633,8.87693977355957
LTFJ,Sabiha Gökçen International Airport,Istanbul,Turkey,SAW,40.898601532,29.3092002869
LOWK,Klagenfurt Airport,Klagenfurt,Austria,KLU,46.642502,14.3377
ENHF,Hammerfest Airport,Hammerfest,Norway,HFT,70.679702758789,23.668600082397
ENHV,Valan Airport,Honningsvag,Norway,HVG,71.009696960449,25.983600616455
ENMH,Mehamn Airport,Mehamn,Norway,MEH,71.02970123291,27.826700210571
ENVD,Vadsø Airport,Vadsø,Norway,VDS,70.065299987793,29.844699859619
OIIE,Imam Khomeini International Airport,Tehran,Iran,IKA,35.416099548339844,51.15219879150391
OIMM,Mashhad International Airport,Mashhad,Iran,MHD,36.235198974609375,59.64099884033203
ENOV,"Ørsta-Volda Airport, Hovden",Orsta-Volda,Norway,HOV,62.180000305176,6.0741000175476
ENNK,Narvik Framnes Airport,Narvik,Norway,NVK,68.436897277832,17.386699676514
ENBV,Berlevåg Airport,Berlevag,Norway,BVG,70.871399,29.034201
ENFB,"Oslo, Fornebu Airport",Oslo,Norway,FBU,59.89580154418945,10.617199897766112
URKA,Anapa Vityazevo Airport,Anapa,Russia,AAQ,45.002101898193,37.347301483154
KABE,Lehigh Valley International Airport,Allentown,United States,ABE,40.652099609375,-75.44080352783203
UATG,Atyrau Airport,Atyrau,Kazakhstan,GUW,47.12189865112305,51.8213996887207
ULAA,Talagi Airport,Arkhangelsk,Russia,ARH,64.60030364990234,40.71670150756836
UWSS,Saratov Central Airport,Saratov,Russia,RTW,51.56499862670898,46.04669952392578
UATE,Aktau Airport,Aktau,Kazakhstan,SCO,43.8601,51.091999
ULOO,Pskov Airport,Pskov,Russia,PKV,57.78390121459961,28.39559936523437
UNKL,Yemelyanovo Airport,Krasnoyarsk,Russia,KJA,56.172901,92.493301
UAKK,Sary-Arka Airport,Karaganda,Kazakhstan,KGF,49.67079925537109,73.33439636230469
DABT,Batna Airport,Batna,Algeria,BLJ,35.7521018982,6.308589935300001
DAOR,Béchar Boudghene Ben Ali Lotfi Airport,Béchar,Algeria,CBH,31.645700454711918,-2.269860029220581
DAUO,Guemar Airport,Guemar,Algeria,ELU,33.5113983154,6.77679014206
EDAH,Heringsdorf Airport,Heringsdorf,Germany,HDF,53.8787002563,14.152299881
EFSI,Seinäjoki Airport,Seinäjoki / Ilmajoki,Finland,SJY,62.692101,22.8323
EGCN,Robin Hood Doncaster Sheffield Airport,"Doncaster, Sheffield",United Kingdom,DSA,53.4805378105,-1.01065635681
EGEC,Campbeltown Airport,Campbeltown,United Kingdom,CAL,55.437198638916016,-5.686389923095703
EGET,Lerwick / Tingwall Airport,Lerwick,United Kingdom,LWK,60.192199707,-1.24361002445
EGOV,Anglesey Airport,Angelsey,United Kingdom,VLY,53.2481002808,-4.53533983231
EGPR,Barra Airport,Barra,United Kingdom,BRR,57.0228,-7.44306
EIDL,Donegal Airport,Dongloe,Ireland,CFN,55.0442008972168,-8.340999603271484
EIWT,Weston Airport,Leixlip,Ireland,,53.3521995544,-6.48611021042
EKSN,Sindal Airport,Sindal,Denmark,CNL,57.503502,10.2294
ENLK,Leknes Airport,Leknes,Norway,LKN,68.152496337891,13.609399795532
ENNM,Namsos Høknesøra Airport,Namsos,Norway,OSY,64.472198486328,11.57859992981
ENRA,"Mo i Rana Airport, Røssvoll",Mo i Rana,Norway,MQN,66.363899230957,14.301400184631
ENRM,"Rørvik Airport, Ryum",Rørvik,Norway,RVK,64.838302612305,11.14610004425
ENRS,Røst Airport,Røst,Norway,RET,67.527801513672,12.103300094604
ENSD,Sandane Airport (Anda),Sandane,Norway,SDN,61.830001831055,6.1058301925659
ENSG,Sogndal Airport,Sogndal,Norway,SOG,61.156101,7.13778
ENSH,Svolvær Helle Airport,Svolvær,Norway,SVJ,68.243301391602,14.669199943542
ENSR,Sørkjosen Airport,Sorkjosen,Norway,SOJ,69.786796569824,20.959400177002
ENSS,"Vardø Airport, Svartnes",Vardø,Norway,VAW,70.355400085449,31.044900894165
ENVR,Værøy Heliport,Værøy,Norway,VRY,67.654555,12.727257
EPBY,Bydgoszcz Ignacy Jan Paderewski Airport,Bydgoszcz,Poland,BZG,53.0968017578,17.9776992798
EPLL,Łódź Władysław Reymont Airport,Lodz,Poland,LCJ,51.7219009399,19.3980998993
ESNZ,Åre Östersund Airport,Östersund,Sweden,OSD,63.194400787354,14.50030040741
ESOH,Hagfors Airport,Hagfors,Sweden,HFS,60.02009963989258,13.578900337219238
ESOK,Karlstad Airport,Karlstad,Sweden,KSD,59.4446983337,13.3374004364
ESST,Torsby Airport,Torsby,Sweden,TYF,60.1576004028,12.991299629199998
ESTA,Ängelholm-Helsingborg Airport,Ängelholm,Sweden,AGH,56.29610061645508,12.847100257873535
ESUD,Storuman Airport,Mohed,Sweden,SQO,64.96089935302734,17.69659996032715
ESUT,Hemavan Airport,Hemavan,Sweden,HMV,65.80609893798828,15.082799911499023
EVVA,Ventspils International Airport,Ventspils,Latvia,VNT,57.35779953,21.5442008972
GCGM,La Gomera Airport,La Gomera,Spain,GMZ,28.029600143432617,-17.214599609375
GGOV,Osvaldo Vieira International Airport,Bissau,Guinea-Bissau,OXB,11.894800186157228,-15.65369987487793
GMMA,Smara Airport,Smara,Western Sahara,SMW,26.7318,-11.6847
GMMH,Dakhla Airport,Dakhla,Western Sahara,VIL,23.7183,-15.932
GMMI,Mogador Airport,Essadouira,Morocco,ESU,31.3974990845,-9.6816701889
GMML,Hassan I Airport,El Aaiún,Western Sahara,EUN,27.151699,-13.2192
GMMW,Nador International Airport,El Aroui,Morocco,NDR,34.988800048799995,-3.0282099247
GVNP,Praia International Airport,"Praia, Santiago Island",Cape Verde,RAI,14.924500465393066,-23.49349975585937
HCMM,Aden Adde International Airport,Mogadishu,Somalia,MGQ,2.014440059661865,45.3046989440918
HEAT,Assiut International Airport,Asyut,Egypt,ATZ,27.0464992523,31.0119991302
HLLM,Mitiga Airport,Tripoli,Libya,MJI,32.894100189208984,13.276000022888184
HLLQ,La Abraq Airport,Al Bayda',Libya,LAQ,32.788700103759766,21.96430015563965
HSPN,Port Sudan New International Airport,Port Sudan,Sudan,PZU,19.4335994720459,37.23410034179688
KCGI,Cape Girardeau Regional Airport,Cape Girardeau,United States,CGI,37.22529983520508,-89.57080078125
KPSM,Portsmouth International at Pease Airport,Portsmouth,United States,PSM,43.0778999329,-70.8233032227
KSLN,Salina Municipal Airport,Salina,United States,SLN,38.79100036621094,-97.6521987915039
LFEY,Île d'Yeu Airport,Île d'Yeu,France,IDY,46.71860122680664,-2.3911099433898926
LFJR,Angers-Loire Airport,Angers/Marcé,France,ANE,47.560299,-0.312222
LFTZ,La Môle Airport,La Môle,France,LTT,43.205399,6.482
LGSO,Syros Airport,Syros Island,Greece,JSY,37.4227981567,24.9508991241
LHPP,Pécs-Pogány Airport,Pécs-Pogány,Hungary,PEV,45.990898,18.240996
LHPR,Győr-Pér International Airport,Győr,Hungary,,47.624401,17.813601
LHSM,Sármellék International Airport,Sármellék,Hungary,SOB,46.686391,17.159084
LIMW,Aosta Airport,Aosta,Italy,AOT,45.738499,7.36872
LIRI,Salerno Costa d'Amalfi Airport,Salerno,Italy,QSR,40.620399,14.9113
LPCR,Corvo Airport,Corvo,Portugal,CVU,39.671501,-31.1136
LQBK,Banja Luka International Airport,Banja Luka,Bosnia and Herzegovina,BNX,44.94139862060547,17.297500610351562
LTBO,Uşak Airport,Usak,Turkey,USQ,38.68149948120117,29.47170066833496
LTCF,Kars Airport,Kars,Turkey,KSY,40.562198638916016,43.1150016784668
LTCN,Kahramanmaraş Airport,Kahramanmaras,Turkey,KCM,37.5388259888,36.9535217285
LTCO,Ağrı Airport,Agri,Turkey,AJI,39.654541015625,43.025978088378906
LTCP,Adıyaman Airport,Adiyaman,Turkey,ADF,37.7313995361,38.4688987732
LTFC,Süleyman Demirel International Airport,Isparta,Turkey,ISE,37.8554000854,30.3684005737
LTFD,Balıkesir Körfez Airport,Balikesir Korfez,Turkey,EDO,39.554599762,27.0137996674
LTFH,Samsun Çarşamba Airport,Samsun,Turkey,SZF,41.254501,36.567101
LZZI,Žilina Airport,Žilina,Slovakia,ILZ,49.2314987183,18.6135005951
MDCY,Samaná El Catey International Airport,Samana,Dominican Republic,AZS,19.2670001984,-69.7419967651
OESK,Al-Jawf Domestic Airport,Al-Jawf,Saudi Arabia,AJF,29.78510093688965,40.09999847412109
OINZ,Dasht-e Naz Airport,Dasht-e-naz,Iran,SRY,36.635799408,53.1935997009
OITR,Urmia Airport,Uromiyeh,Iran,OMH,37.6680984497,45.0686988831
OMAL,Al Ain International Airport,Al Ain,United Arab Emirates,AAN,24.261699676513672,55.60919952392578
ORSU,Sulaymaniyah International Airport,Sulaymaniyah,Iraq,ISU,35.5617485046,45.3167381287
UASK,Ust-Kamennogorsk Airport,Ust Kamenogorsk,Kazakhstan,UKK,50.036598205566406,82.49420166015625
UAUU,Kostanay West Airport,Kostanay,Kazakhstan,KSN,53.20690155029297,63.55030059814453
UBBG,Ganja Airport,Ganja,Azerbaijan,KVD,40.737701416015625,46.31760025024414
UBBN,Nakhchivan Airport,Nakhchivan,Azerbaijan,NAJ,39.18880081176758,45.45840072631836
UKDE,Zaporizhzhia International Airport,Zaporozhye,Ukraine,OZH,47.867000579833984,35.31570053100586
UKDR,Kryvyi Rih International Airport,Krivoy Rog,Ukraine,KWG,48.04330062866211,33.209999084472656
UKHH,Kharkiv International Airport,Kharkov,Ukraine,HRK,49.924800872802734,36.290000915527344
UKLI,Ivano-Frankivsk International Airport,Ivano-Frankivsk,Ukraine,IFO,48.88420104980469,24.68610000610352
UKLN,Chernivtsi International Airport,Chernovtsk,Ukraine,CWC,48.2593002319336,25.98080062866211
UKLR,Rivne International Airport,Rivne,Ukraine,RWN,50.60710144042969,26.141599655151367
UKLU,Uzhhorod International Airport,Uzhgorod,Ukraine,UDJ,48.6343002319336,22.263399124145508
ULPB,Petrozavodsk Airport,Petrozavodsk,Russia,PES,61.88520050048828,34.15470123291016
UMMG,Hrodna Airport,Hrodna,Belarus,GNA,53.60200119018555,24.053800582885746
UMOO,Mogilev Airport,Mogilev,Belarus,MVQ,53.95489883422852,30.09510040283203
UNWW,Spichenkovo Airport,Novokuznetsk,Russia,NOZ,53.811401,86.877197
URMG,Khankala Air Base,Grozny,Russia,,43.298099517822266,45.78409957885742
URMN,Nalchik Airport,Nalchik,Russia,NAL,43.51290130615234,43.636600494384766
URMO,Beslan Airport,Beslan,Russia,OGZ,43.2051010132,44.6066017151
USHH,Khanty Mansiysk Airport,Khanty-Mansiysk,Russia,HMA,61.02849960327149,69.08609771728516
UTNN,Nukus Airport,Nukus,Uzbekistan,NCU,42.488399505615234,59.62329864501953
UTNU,Urgench Airport,Urgench,Uzbekistan,UGC,41.58430099487305,60.641700744628906
UUOB,Belgorod International Airport,Belgorod,Russia,EGO,50.643798828125,36.5900993347168
UUOK,Kursk East Airport,Kursk,Russia,URS,51.7505989074707,36.29560089111328
UUOL,Lipetsk Airport,Lipetsk,Russia,LPK,52.70280075073242,39.53779983520508
UWKS,Cheboksary Airport,Cheboksary,Russia,CSY,56.09030151367188,47.3473014831543
UWLW,Ulyanovsk East Airport,Ulyanovsk,Russia,ULY,54.4010009765625,48.80270004272461
VRMG,Gan International Airport,Gan Island,Maldives,GAN,-0.693342,73.155602
VVCR,Cam Ranh Airport,Nha Trang,Vietnam,CXR,11.99820041656494,109.21900177001952
KORH,Worcester Regional Airport,Worcester,United States,ORH,42.26729965209961,-71.87570190429688
ZBDS,Ordos Ejin Horo Airport,Dongsheng,China,DSN,39.49,109.861388889
EGEO,Oban Airport,North Connel,United Kingdom,OBN,56.4635009765625,-5.399670124053955
LFLJ,Courchevel Airport,Courcheval,France,CVF,45.39670181274414,6.6347198486328125
UTSA,Navoi Airport,Navoi,Uzbekistan,NVI,40.1171989440918,65.1707992553711
DAAS,Ain Arnat Airport,Setif,Algeria,QSF,36.178100585900005,5.32449007034
LFBH,La Rochelle-Île de Ré Airport,La Rochelle,France,LRH,46.17919921875,-1.1952799558639526
EDHE,Uetersen/Heist Airport,Uetersen,Germany,,53.64638900756836,9.704167366027832
ESUP,Pajala Airport,Pajala,Sweden,PJA,67.24559783935547,23.06889915466309
LTCR,Mardin Airport,Mardin,Turkey,MQM,37.2233009338,40.6316986084
LELN,Leon Airport,Leon,Spain,LEN,42.5890007019043,-5.65556001663208
LEBG,Burgos Airport,Burgos,Spain,RGS,42.357601,-3.62076
OPST,Sialkot Airport,Sialkot,Pakistan,SKT,32.5355567932,74.3638916016
SULS,Capitan Corbeta CA Curbelo International Airport,Punta del Este,Uruguay,PDP,-34.855098724365234,-55.09429931640625
LTBY,Anadolu Airport,Eskissehir,Turkey,AOE,39.809898,30.5194
LTBH,Çanakkale Airport,Canakkale,Turkey,CKZ,40.1376991272,26.4267997742
LTCK,Muş Airport,Mus,Turkey,MSR,38.74779891967773,41.66120147705078
LTCM,Sinop Airport,Sinop,Turkey,NOP,42.015800476074,35.066398620605
LTBU,Tekirdağ Çorlu Airport,Çorlu,Turkey,TEQ,41.13819885253906,27.919099807739254
LTBR,Bursa Yenişehir Airport,Yenisehir,Turkey,YEI,40.2551994324,29.5625991821
LOAG,Krems Airport,Krems,Austria,,48.446389,15.634167
OTBH,Al Udeid Air Base,Doha,Qatar,XJD,25.1173000336,51.3149986267
UTAM,Mary Airport,Mary,Turkmenistan,MYP,37.6194,61.896702
LELL,Sabadell Airport,Sabadell,Spain,QSA,41.52090072631836,2.1050798892974854
LOWZ,Zell Am See Airport,Zell am See,Austria,,47.292222,12.7875
UKLT,Ternopil International Airport,Ternopol,Ukraine,,49.5242,25.7001
UMBB,Brest Airport,Brest,Belarus,BQT,52.108299,23.8981
LSGL,Lausanne-Blécherette Airport,Lausanne,Switzerland,QLS,46.54529953,6.61667013168
LSGN,Neuchatel Airport,Neuchatel,Switzerland,QNC,46.9575004578,6.86471986771
UUBW,Zhukovsky International Airport,Ramenskoe,Russia,ZIA,55.553299,38.150002
UUDL,Tunoshna Airport,Yaroslavl,Russia,IAR,57.56069946289063,40.15739822387695
LQTZ,Tuzla International Airport,Null,Bosnia and Herzegovina,TZL,44.45869827270508,18.72480010986328
UWKE,Begishevo Airport,Nizhnekamsk,Russia,NBC,55.564701080322266,52.09249877929688
KISM,Kissimmee Gateway Airport,Kissimmee,United States,ISM,28.2898006439,-81.4371032715
OAIX,Bagram Air Base,Kabul,Afghanistan,OAI,34.9460983276,69.26499938959999
OEPS,Prince Sultan Air Base,Al Kharj,Saudi Arabia,AKH,24.062700271606445,47.58050155639648
LHPA,Pápa Air Base,Papa,Hungary,,47.3636016846,17.5007991791
LSGE,Ecuvillens Airport,Ecuvillens,Switzerland,,46.755001068115234,7.076109886169434
DTNH,Enfidha - Hammamet International Airport,Enfidha,Tunisia,NBE,36.075833,10.438611
LTDA,Hatay Airport,Hatay,Turkey,HTY,36.36277771,36.282222747800006
LEDA,Lleida-Alguaire Airport,Lleida,Spain,ILD,41.728185,0.535023
LFEC,Ouessant Airport,Ouessant,France,,48.46319961547852,-5.06358003616333
LEHC,Huesca/Pirineos Airport,Huesca,Spain,HSK,42.0760993958,-0.316666990519
ORNI,Al Najaf International Airport,Najaf,Iraq,NJF,31.989853,44.404317
KFTY,Fulton County Airport Brown Field,Atlanta,United States,FTY,33.7790985107,-84.5214004517
KADS,Addison Airport,Addison,United States,ADS,32.9686012268,-96.8364028931
UKOH,Kherson International Airport,Kherson,Ukraine,KHE,46.6758,32.506401
KISO,Kinston Regional Jetport At Stallings Field,Kinston,United States,ISO,35.331401825,-77.60880279540001
KSDL,Scottsdale Airport,Scottsdale,United States,SCF,33.622898101807,-111.91100311279
KPDK,DeKalb Peachtree Airport,Atlanta,United States,PDK,33.8755989075,-84.3020019531
KMMU,Morristown Municipal Airport,Morristown,United States,MMU,40.79940032958984,-74.41490173339844
LIPV,Venice-Lido Airport,Venice,Italy,,45.428299,12.3881
LTAS,Zonguldak Airport,Zonguldak,Turkey,ONQ,41.506401062,32.0886001587
KBJC,Rocky Mountain Metropolitan Airport,Broomfield-CO,United States,BJC,39.90879822,-105.1169968
EHTE,Teuge Airport,Deventer,Netherlands,,52.2447013855,6.04666996002
EHMZ,Midden-Zeeland Airport,Middelburg,Netherlands,,51.5121994019,3.73111009598
OMDM,Al Minhad Air Base,Minhad AB,United Arab Emirates,NHD,25.0268001556,55.3661994934
UKKG,Kirovograd Airport,Kirovograd,Ukraine,KGO,48.54280090332031,32.28499984741211
HEAL,El Alamein International Airport,Dabaa City,Egypt,DBB,30.92449951171875,28.46139907836914
UUMU,Chkalovskiy Air Base,Shchyolkovo,Russia,CKL,55.8783,38.061699
EDLM,Marl-Loemühle Airfield,Recklinghausen,Germany,,51.647202,7.16333
EDTL,Lahr Airport,Lahr,Germany,LHA,48.3693008423,7.82772016525
KMQY,Smyrna Airport,Smyrna,United States,MQY,36.0089988708,-86.5201034546
KPWK,Chicago Executive Airport,Chicago-Wheeling,United States,PWK,42.114222,-87.901494
KILN,Wilmington Airpark,Wilmington,United States,ILN,39.427898407,-83.792098999
UKKM,Gostomel Airport,Kiev,Ukraine,GML,50.60350036621094,30.1919002532959
EDML,Landshut Airport,Landshut,Germany,,48.51166534423828,12.033332824707031
EPRA,Radom Airport,RADOM,Poland,RDO,51.3891983032,21.213300705
KFRG,Republic Airport,Farmingdale,United States,FRG,40.7288017273,-73.4133987427
EDCY,Spremberg-Welzow Airport,Welzow,Germany,,51.57555770874024,14.136943817138672
OMDW,Al Maktoum International Airport,Dubai,United Arab Emirates,DWC,24.896356,55.161389
EDWQ,Ganderkesee Atlas Airfield,Ganderkesee,Germany,,53.03611,8.505556
EDCO,Obermehler-Schlotheim Airport,Obermehler,Germany,,51.26777648925781,10.634721755981444
LSTS,St Stephan Airport,St.Stephan,Switzerland,,46.49739837646485,7.412569999694824
UKWW,Vinnytsia/Gavyryshivka Airport,Vinnitsa,Ukraine,VIN,49.242531,28.613778
KOQU,Quonset State Airport,North Kingstown,United States,NCO,41.597099304199,-71.412101745605
GMAZ,Zagora Airport,Zagora,Morocco,OZG,30.3202991486,-5.86667013168
KAFW,Fort Worth Alliance Airport,Fort Worth,United States,AFW,32.9875984192,-97.3188018799
OKAS,Ali Al Salem Air Base,Kuwait,Kuwait,,29.34670066833496,47.52080154418945
EPMO,Modlin Airport,Warsaw,Poland,WMI,52.451099,20.6518
EDAJ,Gera-Leumnitz Airfield,Gera,Germany,,50.881668,12.135833
UUBC,Grabtsevo Airport,Kaluga,Russia,KLF,54.5499992371,36.3666687012
EDAV,Eberswalde-Finow Airport,Eberswalde,Germany,,52.82722091674805,13.693611145019531
LSZC,Buochs Airport,Buochs,Switzerland,BXO,46.974444,8.396944
KBVY,Beverly Municipal Airport,Beverly,United States,BVY,42.5842018127,-70.91649627689999
UUMO,Ostafyevo International Airport,Moscow,Russia,OSF,55.511667,37.507222
EGPT,Perth/Scone Airport,Perth,United Kingdom,PSL,56.43920135498047,-3.372220039367676
KSTP,St Paul Downtown Holman Field,St. Paul,United States,STP,44.93450164794922,-93.05999755859376
EDCP,Peenemünde Airport,Peenemunde,Germany,PEF,54.1577796936,13.774443626399998
UBBL,Lankaran International Airport,Lankaran,Azerbaijan,LLK,38.7463989258,48.8180007935
UBBQ,Gabala International Airport,Qabala,Azerbaijan,GBB,40.826667,47.7125
EGSU,Duxford Aerodrome,Duxford,United Kingdom,QFO,52.090801,0.131944
EPLB,Lublin Airport,Lublin,Poland,LUZ,51.240278,22.713611
LDLO,Lošinj Island Airport,Mali Losinj,Croatia,LSZ,44.5657997131,14.3930997849
EGTF,Fairoaks Airport,Fairoaks,United Kingdom,,51.3480987549,-0.558888971806
EDTG,Bremgarten Airport,Bremgarten,Germany,,47.9027786255,7.6177778244
KPTK,Oakland County International Airport,Pontiac,United States,PTK,42.665500640869,-83.420097351074
UKKV,Zhytomyr Airport,Zhytomyr,Ukraine,ZTR,50.270556,28.738611
VCRI,Mattala Rajapaksa International Airport,Mattala,Sri Lanka,HRI,6.284467,81.124128
LTCT,Iğdır Airport,Igdir,Turkey,IGD,39.9766273499,43.8766479492
LTCS,Şanlıurfa GAP Airport,Sanliurfa,Turkey,GNY,37.445663,38.895592
LTBZ,Zafer Airport,Kutahya,Turkey,KZR,39.113079,30.128111
GMFB,Bouarfa Airport,Bouarfa,Morocco,UAR,32.5143055556,-1.98305555556
ENRK,Rakkestad Astorp Airport,Rakkestad,Norway,,59.397499,11.3469
LTCU,Bingöl Çeltiksuyu Airport,Bingol,Turkey,BGG,38.8592605591,40.5959625244
LTAL,Kastamonu Airport,Kastamonu,Turkey,KFS,41.31420135498047,33.795799255371094
LICB,Comiso Airport,Comiso,Italy,CIY,36.994601,14.607182
GMMD,Beni Mellal Airport,Beni Mellal,Morocco,BEM,32.401895,-6.315905
LTCV,Şırnak Şerafettin Elçi Airport,Cizre,Turkey,NKT,37.3647,42.0582
EGSG,Stapleford Aerodrome,Stapleford,United Kingdom,,51.652500152600005,0.155833005905
OTHH,Hamad International Airport,Doha,Qatar,DOH,25.273056,51.608056
EPSY,Olsztyn-Mazury Airport,Szczytno-Szymany,Poland,SZY,53.481899,20.9377
LHTL,Tököl Airport,Budapest,Hungary,,47.345298767100005,18.9808006287
LTCB,Ordu Giresun Airport,Ordu-Giresun,Turkey,OGU,40.966047,38.080994
LTCW,Hakkari Yüksekova Airport,Hakkari,Turkey,YKO,37.5497,44.2381
KCMA,Camarillo Airport,Camarillo - CA,United States,,34.21369934082031,-119.09400177001952
EDFB,Reichelsheim Airport,Reichelsheim,Germany,,50.33583450317383,8.878055572509766
EDBN,Neubrandenburg Airport,Neubrandenburg,Germany,FNB,53.6022,13.306
ESTL,Ljungbyhed Airport,Ljungbyhed,Sweden,,56.082801818847656,13.212499618530272
HEAZ,Almaza Air Force Base,Cairo,Egypt,,30.091800689697266,31.36000061035156
LBPG,Graf Ignatievo Air Base,Graf Ignatievo,Bulgaria,,42.29040145874024,24.714000701904297
LBPL,Dolna Mitropoliya Air Base,Dolna Mitropoliya,Bulgaria,,43.451401,24.5028
LBWB,Balchik Air Base,Balchik,Bulgaria,,43.42380142211914,28.181299209594727
LECU,Cuatro Vientos Airport,Madrid,Spain,ECV,40.370701,-3.78514
LETL,Teruel Airport,Teruel,Spain,TEV,40.403,-1.2183
LIDT,Trento-Mattarello Airport,Trento (TN),Italy,,46.0214,11.1242
LILE,Biella-Cerrione Airport,Biella (BI),Italy,,45.4953,8.10278
LUBM,Mărculeşti International Airport,Mărculeşti,Moldova,,47.862701416015625,28.212799072265625
OERY,Riyadh Air Base,Riyadh,Saudi Arabia,XXN,24.709800720214844,46.72520065307617
UMMA,Baranavichi Air Base,Baranavichi,Belarus,,53.09999847412109,26.049999237060547
VOHS,Rajiv Gandhi International Airport,Hyderabad,India,HYD,17.2313175201,78.4298553467
USDA,Sabetta International Airport,Sabetta,Russia,SBT,71.219167,72.052222
EGOQ,RAF Mona,Mona,United Kingdom,,53.258598,-4.37355
LHBS,Budaörs Airfield,Budaoers,Hungary,,47.451099,18.9806
EDKB,Bonn-Hangelar Airport,Sankt-Augustin,Germany,BNJ,50.7688903809,7.16333293915
LIDE,Reggio Emilia Airport,Reggio Emilia,Italy,,44.698299,10.6628
FCOD,Oyo Ollombo Airport,Oyo,Congo (Brazzaville),OLL,-1.226666,15.91
EKAT,Anholt Airport,Anholt,Denmark,,56.6988983154,11.5558996201
HLZN,Alzintan Airport,Zintan,Libya,ZIS,31.774878,12.25006
